,Cod_Loc,IdProvincia,IdDepartamento,Observaciones,Categoría,Provincia,Departamento,Localidad,Nombre,Dirección,Piso,CP,cod_area,Teléfono,Mail,Web,Información adicional,Latitud,Longitud,TipoLatitudLongitud,Fuente,tipo_gestion,Pantallas,Butacas,espacio_INCAA,año_actualizacion
0,10049030,10,10049,,Salas de cine,Catamarca,Capital,Catamarca,Cinemacenter,Intendente Mamerto Medina 220,s/d,4700,s/d,s/d,s/d,http://www.cinemacenter.com.ar/,,-28.464737,-65.800675,Localización precisa,INCAA / SInCA,Privado comercial,5,743,,2018
1,10091150,10,10091,,Salas de cine,Catamarca,Santa Maria,Santa María,Centro Cultural San Agustín,San Martin 173,s/d,4139,3838,421511,s/d,s/d,,-26.693859,-66.049058,Localización precisa,INCAA / SInCA,Privado comercial,1,440,0,2018
2,22140060,22,22140,,Salas de cine,Chaco,San Fernando,Resistencia,Los Cines De La Costa,Av. Sarmiento 2600,s/d,3500,3794,472200,administracion@loscinesdelacosta.com.ar,http://resistencia.loscinesdelacosta.com.ar/,,-27.430995,-58.962672,Localización precisa,INCAA / SInCA,Privado comercial,5,820,,2018
3,26091020,26,26091,,Salas de cine,Chubut,Sarmiento,Sarmiento,Deborah Jones De Williams,Reg. Inf. Mec. 25 Esquina 20 De Junio,s/d,9020,297,4897169,culturasarmiento@hotmail.com,http://www.culturachubut.gob.ar/…/convo-evita-culturales.ht…,,-45.594374,-69.069594,Localización precisa,INCAA / SInCA,Público municipal,1,80,,2018
4,18007010,18,18007,,Salas de cine,Corrientes,Bella Vista,Bella Vista,Fantasio,Salta 1059,s/d,3432,s/d,s/d,nuevocineteatrorex@gmail.com,https://www.facebook.com/CineFantasioBellaVista/,,-28.508494,-59.045464,Localización precisa,INCAA / SInCA,Privado comercial,1,240,,2018
5,30056070,30,30056,,Salas de cine,Entre Ríos,Gualeguaychu,Gualeguaychú,Cinema Gualeguaychú,25 De Mayo 1383,s/d,2820,263,4553653,cebriancine@gmail.com,http://cinemagualeguaychu.com,,-33.009937,-58.525474,Localización precisa,INCAA / SInCA,Privado comercial,1,330,,2018
6,30084070,30,30084,,Salas de cine,Entre Ríos,Parana,Crespo,Salón Teatro Municipal,25 De Mayo 943,s/d,3116,343,4951160,municres@gmail.com,http://www.crespo.gov.ar,,-32.031231,-60.305828,Localización precisa,INCAA / SInCA,Público municipal,1,180,,2018
7,30028010,30,30028,,Salas de cine,Entre Ríos,Federacion,Chajarí,Cine Gran Libertad,3 De Febrero 3060,s/d,3228,11,49899707,gerenciagranlibertad@gmail.com,http://cinegranlibertad.com/sala/gran-libertad/alias/chaj,,-30.759415,-57.984929,Localización precisa,INCAA / SInCA,Privado comercial,1,400,,2018
8,30084160,30,30084,,Salas de cine,Entre Ríos,Parana,Paraná,Cine Complejo Círculo,Andres Pazos 339,s/d,3100,343,4233222,v-vieiro@hotmail.com,https://www.cinecirculo.com.ar/,,-31.732929,-60.524631,Localización precisa,INCAA / SInCA,Privado comercial,2,300,,2018
9,30008020,30,30008,,Salas de cine,Entre Ríos,Colon,Colón,Starlight,Calle 12 De Abril 287,s/d,3280,3447,424481,samanthaeventos@hotmail.com,https://www.facebook.com/pg/StarlightCineColon/about/?ref=page_internal,,-32.22154,-58.138713,Localización precisa,INCAA / SInCA,Privado comercial,2,154,,2018
10,30049040,30,30049,,Salas de cine,Entre Ríos,Gualeguay,Gualeguay,Altos Del Gualeguay,Rocamora 33,s/d,2840,3444,453306,legales@nefroargentina.com.ar,https://www.facebook.com/pg/CineAltosDeGualeguay/about/?ref=page_internal,,-33.150323,-59.311609,Localización precisa,INCAA / SInCA,Privado comercial,1,198,,2018
11,38094050,38,38094,,Salas de cine,Jujuy,Tilcara,Tilcara,Barbarita Cruz,Belgrano 547,s/d,4624,388,4955462,musica@imagine.com.ar,https://capectilcara.com/,,-23.577105,-65.393961,Localización precisa,INCAA / SInCA,Privado independiente,1,120,si,2018
12,38021060,38,38021,,Salas de cine,Jujuy,Dr. Manuel Belgrano,San Salvador de Jujuy,Cine Auditorium,Independencia Esq. Italia S/N,s/d,4600,388,4632908,cineauditoriumjujuy@gmail.com,https://www.facebook.com/CineAuditoriumJujuyINCAAMercosur/,,-24.187252,-65.292851,Localización precisa,INCAA / SInCA,Otros,1,201,,2018
13,42007010,42,42007,,Salas de cine,La Pampa,Atreuco,Doblas,Centro Cultural Doblas,Cordoba 670,s/d,6305,2953,492102,culturaydeportedoblas@cosedo.com.ar,s/d,,-37.152139,-64.011298,Localización precisa,INCAA / SInCA,Público municipal,1,114,,2018
14,42021020,42,42021,,Salas de cine,La Pampa,Capital,Santa Rosa,Milenium,Escalante 270,s/d,6300,295,4773833,cineamadeus@yahoo.com.ar,https://www.facebook.com/pages/Cine-Milenium/321221581543378,,-36.623122,-64.294797,Localización precisa,INCAA / SInCA,Privado comercial,1,352,,2018
15,46042010,46,46042,,Salas de cine,La Rioja,Chilecito,Chilecito,Cinema,La Plata Y 19 De Febrero,s/d,5360,380,4626907,ericontadoralinares@gmail.com,http://cinema3dlarioja.com/,,-29.163011,-67.495688,Localización precisa,INCAA / SInCA,Privado comercial,2,216,,2018
16,54077060,54,54077,,Salas de cine,Misiones,Libertador Grl. San Martin,Puerto Rico,Cine Teatro Municipal San Martin,Av. San Martin 1474,s/d,3334,3743,422400,cultura.puertoricomnes@gmail.com,https://www.facebook.com/Cine-Teatro-San-Martin-Puerto-Rico-Misiones-611780998973270/,,-26.811821,-55.02552,Localización precisa,INCAA / SInCA,Público municipal,1,520,,2018
17,54063030,54,54063,,Salas de cine,Misiones,Iguazu,Puerto Iguazú,Cine Panoramic Grand,Paraguay 372,s/d,3370,3757,498100,s/d,http://www.panoramicgrand.com,,-25.593393,-54.575744,Localización precisa,INCAA / SInCA,Privado comercial,1,40,,2018
18,54028030,54,54028,,Salas de cine,Misiones,Capital,Posadas,Del Conocimiento,Ruta 12 Y Acceso Oeste (Av. Ulises Lopez),s/d,3300,3764,191010,info@imaxdelconocimiento.com,https://www.parquedelconocimiento.com/,,-27.396198,-55.963477,Localización precisa,INCAA / SInCA,Público provincial,1,546,si,2018
19,66049040,66,66049,,Salas de cine,Salta,General Guemes,General Guemes,Centro Cultural 13 De Febrero,20 De Febrero Esq. Gorriti,s/d,4430,3874,496276,cine13defebrero2013@outlook.com,https://www.facebook.com/Centro-Cultural-13-de-Febrero-Cine-teatro-962533320483179/,,-24.676303,-65.045895,Localización precisa,INCAA / SInCA,Privado comercial,1,252,,2018
20,66028050,66,66028,,Salas de cine,Salta,Capital,Salta,El Teatrino,Aniceto Latorre 1211,s/d,4400,387,4228904,industriaculturalsrl@gmail.com,http://www.elteatrino.com/,,-24.773232,-65.417864,Localización precisa,INCAA / SInCA,Privado comercial,1,120,,2018
21,66028050,66,66028,,Salas de cine,Salta,Capital,Salta,Cinemark,Av. Monseñor Tavella 4400,s/d,4400,s/d,57771000,lventura@cinemark.com.ar,https://www.cinemarkhoyts.com.ar,,-24.832302,-65.428458,Localización precisa,INCAA / SInCA,Privado comercial,5,897,,2018
22,66028050,66,66028,,Salas de cine,Salta,Capital,Salta,Fundación Salta,General Guemes 434,s/d,4400,387,4320481,correofundacionsalta@gmail.com,http://www.distritoteatralsalta.com/espacio/teatro-de-la-fundacion-salta/,,-24.786574,-65.408451,Localización precisa,INCAA / SInCA,Privado comercial,1,145,,2018
23,70028010,70,70028,,Salas de cine,San Juan,Capital,San Juan,Espacio San Juan,Av. Jose Ignacio De La Roza Oeste 806,s/d,5417,264,4238611,cpohl@cpmcines.com,http://www.espaciosanjuan.com/,,-31.539871,-68.572839,Localización precisa,INCAA / SInCA,Privado comercial,5,849,,2018
24,74049060,74,74049,,Salas de cine,San Luis,Junin,Merlo,Cinestar,Av. Del Sol 1120,s/d,5881,2664,475660,campos_horacio@yahoo.com.ar,https://www.facebook.com/CineStarMerlo/,,-32.346991,-64.998214,Localización precisa,INCAA / SInCA,Privado comercial,1,100,,2018
25,74056150,74,74056,,Salas de cine,San Luis,La Capital,San Luis,Municipal José La Vía,Av. Lafinur Y Av. Illia S/N,s/d,5700,2664,403539,elartenlaescuela@gmail.com,https://www.ciudaddesanluis.gov.ar/,,-33.29922,-66.347846,Localización precisa,INCAA / SInCA,Público municipal,1,75,,2018
26,78021040,78,78021,,Salas de cine,Santa Cruz,Guer Aike,Río Gallegos,Cine Rio Gallegos,Av. Nestor Kirchner 1142,s/d,9400,2966,423753,socin@hotmail.com,http://www.cineriogallegos.com.ar/,,-51.619917,-69.218735,Localización precisa,INCAA / SInCA,Privado comercial,3,290,,2018
27,78049020,78,78049,,Salas de cine,Santa Cruz,Rio Chico,Gobernador Gregores,Cine Municipal,Av. San Martin 514,s/d,9311,2962,491228,s/d,http://www.santacruz.gob.ar,,-48.750801,-70.246605,Localización precisa,INCAA / SInCA,Público municipal,1,80,,2018
28,86147130,86,86147,,Salas de cine,Santiago del Estero,Rio Hondo,Termas de Río Hondo,Atlas Cine,Bolivar 15,s/d,4220,11,55290375,rabdenur@gmail.com,http://www.santacruz.gob.ar,,-27.496838,-64.85833,Localización precisa,INCAA / SInCA,Privado comercial,1,233,,2018
29,86119100,86,86119,,Salas de cine,Santiago del Estero,Moreno,Quimili,Cine Teatro,Rivadavia 553,s/d,3740,3843,402187,sixtomadiaz@hotmail.com,https://www.municipalidaddequimili.gob.ar/,,-27.644486,-62.413799,Localización precisa,INCAA / SInCA,Público municipal,1,136,,2018
30,90084010,90,90084,,Salas de cine,Tucumán,Capital,San Miguel de Tucumán,Atlas Cine,Av. Brigido Teran 250,s/d,4000,11,55290375,rabdenur@gmail.com,cineatlasweb.com.ar,,-26.834701,-65.194059,Localización precisa,INCAA / SInCA,Privado comercial,2,219,,2018
31,82049020,82,82049,,Salas de cine,Santa Fe,General Obligado,Avellaneda,Luna De Avellaneda,Av. San Martin 810,s/d,3561,3482,598468,gscarel@estudioscarel.com.ar,http://www.cinelunadeavellaneda.com,,-29.118061,-59.654853,Localización precisa,INCAA / SInCA,Privado comercial,1,299,,2018
32,82070050,82,82070,,Salas de cine,Santa Fe,Las Colonias,Esperanza,E-Max Cines,Brigadier Lopez 1471,s/d,3080,3496,420947,martin739@gmail.com,http://www.e-max.com.ar,,-31.450826,-60.895483,Localización precisa,INCAA / SInCA,Privado comercial,3,584,,2018
33,82021310,82,82021,,Salas de cine,Santa Fe,Castellanos,Rafaela,Las Tipas Boulevard,C. Conscripto Zurbriggen 865,s/d,2300,3562,405750,admin@lastipasboulevard.com.ar,www.lastipasrafaela.com.ar/,,-31.242567,-61.505319,Localización precisa,INCAA / SInCA,Privado comercial,4,920,,2018
34,82063170,82,82063,,Salas de cine,Santa Fe,La Capital,Santa Fe,Centro Cultural Prov. Francisco Paco Urondo,Junin 2457,s/d,3000,342,4573735,cencultu@yahoo.com.ar,https://es-la.facebook.com/ccpacourondo/,,-31.639196,-60.702974,Localización precisa,INCAA / SInCA,Público provincial,1,800,,2018
35,82021360,82,82021,,Salas de cine,Santa Fe,Castellanos,Sunchales,Auditorio,Ruta 34 Km 262,s/d,2322,3493,454542,infocet@atilra.org.ar,https://www.ate.org/listado_agenda/seccion/3/zona/26/cine-auditorio-ate.html,,-30.929934,-61.546637,Localización precisa,INCAA / SInCA,Privado independiente,1,305,,2018
36,50049050,50,50049,,Salas de cine,Mendoza,Las Heras,Las Heras,Tadicor Las Heras,Juan Dragui Lucero 1450,s/d,5539,351,4864350,pcavallero@tadicor.com,http://www.tadicor.com/Cines.php,,-32.853189,-68.808148,Localización precisa,INCAA / SInCA,Privado comercial,2,284,,2018
37,50098100,50,50098,,Salas de cine,Mendoza,San Martin,San Martín,Tadicor San Martin,Lateral Sur Ruta Nacional 7 Sin Nro,s/d,5570,351,4864350,pcavallero@tadicor.com,htpp:/www.tadicor.com sección cines ,,-32.853468,-68.808184,Localización precisa,INCAA / SInCA,Privado comercial,2,302,,2018
38,14182060,14,14182,,Salas de cine,Córdoba,Union,Bell Ville,Sudcinemas,Mitre 61,s/d,5900,353,422337,sudcinemas@arnetbiz.com.ar,http://sudcinemas.com.ar/cine-wp/cine/bellville/,,-32.630182,-62.686628,Localización precisa,INCAA / SInCA,Privado comercial,2,324,,2018
39,14014010,14,14014,,Salas de cine,Córdoba,Capital,Córdoba,Dinosaurio Mall 60 Cuadras,Av. Circunvalacion Agustin Tosco 4552,s/d,5014,3515,261500,s/d,https://www.cinesdinomall.com.ar/,,-31.455392,-64.139799,Localización precisa,INCAA / SInCA,Privado comercial,2,307,,2018
40,14098110,14,14098,,Salas de cine,Córdoba,Rio Cuarto,Elena,Cine Teatro Coop Luz Y Fuerza,Mitre 31,s/d,5815,358,4881249,rboatti@coopluzelena.com.ar,"https://www.facebook.com › Places › Elena, Cordoba, Argentina › Movie Theater",,-32.571612,-64.393329,Localización precisa,INCAA / SInCA,Privado comercial,1,279,,2018
41,14161110,14,14161,,Salas de cine,Córdoba,Tercero Arriba,Oliva,Cine Cooperativo,Colon 301,s/d,5980,3532,410000,administracion@coop-oliva.com.ar / sofia santolin@coop-oliva,http://coop-oliva.com.ar/,,-32.039403,-63.570425,Localización precisa,INCAA / SInCA,Privado comunitario ,1,200,,2018
42,14098230,14,14098,,Salas de cine,Córdoba,Rio Cuarto,Río Cuarto,Cines Del Paseo,Av. Mugnaini Y Sobremonte,s/d,5800,358,4621235,riocuarto@cinesdelpaseo.com.ar,http://cba.gov.ar,,-33.118053,-64.346569,Localización precisa,INCAA / SInCA,Privado comercial,4,955,,2018
43,14098230,14,14098,,Salas de cine,Córdoba,Rio Cuarto,Río Cuarto,Centro Cultural Leonardo Favio,Buenos Aires 55,s/d,5800,358,4676836,gamolayoli@hotmail.com,http://www.cba.gov.ar/,,-33.124306,-64.349166,Localización precisa,INCAA / SInCA,Público provincial,1,219,,2018
44,14021250,14,14021,,Salas de cine,Córdoba,Colon,Salsipuedes,Dinosaurio Mall,Av. Sarmiento 1007,s/d,5113,3515,261500,cluduena@grupodinosaurio.com,http://www.cinesdinomall.com.ar,,-31.126828,-64.296023,Localización precisa,INCAA / SInCA,Privado comercial,2,322,,2018
45,14014010,14,14014,,Salas de cine,Córdoba,Capital,Villa Rivera Indarte,Sunstar,Ricardo Rojas 9200,s/d,5008,3543,446300,gerente.cordoba@cinesunstar.com,http://www.cinesunstar.com/,,-31.335765,-64.289746,Localización precisa,INCAA / SInCA,Privado comercial,6,1398,,2018
46,2000010,2,2000,,Salas de cine,Ciudad Autónoma de Buenos Aires,Ciudad Autonoma de Buenos Aires,Ciudad Autónoma de Buenos Aires,Centro Cultural Rector Ricardo Rojas,Av. Corrientes 2038,s/d,1045,s/d,49535405,gabriel.guralnik@gmail.com,http://www.rojas.uba.ar/,,-34.604682,-58.395954,Localización precisa,INCAA / SInCA,Público nacional,2,250,,2018
47,2000010,2,2000,,Salas de cine,Ciudad Autónoma de Buenos Aires,Ciudad Autonoma de Buenos Aires,Ciudad Autónoma de Buenos Aires,Atlas Cine,Av. Del Libertador 750,s/d,1001,s/d,43135050,info@atlascines.com.ar,cineatlasweb.com.ar,,-34.588095,-58.383485,Localización precisa,INCAA / SInCA,Privado comercial,3,585,,2018
48,2000010,2,2000,,Salas de cine,Ciudad Autónoma de Buenos Aires,Ciudad Autonoma de Buenos Aires,Ciudad Autónoma de Buenos Aires,Cine Amigos Del Bellas Artes,Av. Pte. Figueroa Alcorta 2280,s/d,1425,s/d,48034062,fwhite@aamnba.org.ar,https://www.facebook.com/pg/amigosdelbellasartes/about/?ref=page_internal,,-34.583511,-58.392686,Localización precisa,INCAA / SInCA,Privado independiente,1,235,,2018
49,2000010,2,2000,,Salas de cine,Ciudad Autónoma de Buenos Aires,Ciudad Autonoma de Buenos Aires,Ciudad Autónoma de Buenos Aires,Cine Teatro Gran Rivadavia,Av. Rivadavia 8636,s/d,1407,s/d,46741300,paula@granrivadavia.com.ar,http://www.granrivadavia.com.ar/inicio/,,-34.634819,-58.485359,Localización precisa,INCAA / SInCA,Privado comercial,1,1494,si,2018
50,2000010,2,2000,,Salas de cine,Ciudad Autónoma de Buenos Aires,Ciudad Autonoma de Buenos Aires,Ciudad Autónoma de Buenos Aires,Atlas Cine,Jeronimo Salguero 3172,s/d,1425,s/d,43135050,info@atlascines.com.ar,cineatlasweb.com.ar,,-34.575385,-58.403997,Localización precisa,INCAA / SInCA,Privado comercial,3,432,,2018
51,2000010,2,2000,,Salas de cine,Ciudad Autónoma de Buenos Aires,Ciudad Autonoma de Buenos Aires,Ciudad Autónoma de Buenos Aires,Hoyts,Melian 4880,s/d,1430,s/d,57771000,rmazzutti@hoyts.com.ar,https://www.cinemarkhoyts.com.ar/,,-34.546344,-58.488435,Localización precisa,INCAA / SInCA,Privado comercial,10,1918,,2018
52,2000010,2,2000,,Salas de cine,Ciudad Autónoma de Buenos Aires,Ciudad Autonoma de Buenos Aires,Ciudad Autónoma de Buenos Aires,Cinain,Moreno 1199,s/d,1091,s/d,43836432,fernandomadedo@cinain.gob.ar,http://cinain.gob.ar/,,-34.611997,-58.383194,Localización precisa,INCAA / SInCA,Público nacional,2,212,,2018
53,2000010,2,2000,,Salas de cine,Ciudad Autónoma de Buenos Aires,Ciudad Autonoma de Buenos Aires,Ciudad Autónoma de Buenos Aires,Cinema Devoto,Quevedo 3365,s/d,1417,s/d,40196019,mlopez@cinemadevoto.com.ar,https://cinemadevoto.com.ar/,,-34.611658,-58.516928,Localización precisa,INCAA / SInCA,Privado comercial,8,1908,,2018
54,2000010,2,2000,,Salas de cine,Ciudad Autónoma de Buenos Aires,Ciudad Autonoma de Buenos Aires,Ciudad Autónoma de Buenos Aires,Centro Cultural Borges,Viamonte 525,Piso 3,1005,s/d,55555358,dpetchersky@yahoo.com.ar,https://www.ccborges.org.ar/,,-34.599724,-58.374559,Localización precisa,INCAA / SInCA,Privado comercial,1,160,,2018
55,6882050,6,6882,,Salas de cine,Buenos Aires,Zarate,Zarate,Cine Teatro Coliseo,19 De Marzo 314,s/d,2800,11,65992021,maquintero78@gmail.com,https://es-la.facebook.com/ZarateCineTeatroColiseo/,,-34.097529,-59.022145,Localización precisa,INCAA / SInCA,Privado comercial,1,300,,2018
56,6441030,6,6441,,Salas de cine,Buenos Aires,La Plata,La Plata,Cine Municipal Ecoselect,19 Y 51,Piso 2,1900,221,4248733,cineylocacioneslaplata@gmail.com,http://www.cultura.laplata.gov.ar,,-34.926546,-57.961577,Localización precisa,INCAA / SInCA,Público municipal,1,60,SI,2018
57,6357110,6,6357,,Salas de cine,Buenos Aires,General Pueyrredon,Mar del Plata,Cinemacenter,Alberti 1610,s/d,7600,11,52180400,gzamora@cinemacenter.com.ar,http://www.cinemacenter.com.ar/,,-38.01162,-57.542939,Localización precisa,INCAA / SInCA,Privado comercial,6,1121,,2018
58,6714060,6,6714,,Salas de cine,Buenos Aires,Salto,Salto,Cervantes,Alvear 65,s/d,2741,2474,551096,j.burgos.ceres@hotmail.com,http://saltoyvos.com/tag/cine_cervantes/,,-34.292986,-60.255264,Localización precisa,INCAA / SInCA,Privado comercial,1,220,,2018
59,6035010,6,6035,,Salas de cine,Buenos Aires,Avellaneda,Avellaneda,Village,Autopista Bs. As. - La Plata Km 6,s/d,1870,s/d,51282828,village.avellaneda@village.com.ar,http://facebook.com/cinecervantes3d,,-34.680206,-58.332777,Localización precisa,INCAA / SInCA,Privado comercial,16,3485,,2018
60,6035010,6,6035,,Salas de cine,Buenos Aires,Avellaneda,Avellaneda,Carlos Carella,Av. Galicia 401,s/d,1870,11,37608002,edulabce@hotmail.com,www.unica-cartelera.com.ar/teatros/259-sala-carlos-carella,,-34.673748,-58.386702,Localización precisa,INCAA / SInCA,Privado comercial,1,45,,2018
61,6490010,6,6490,,Salas de cine,Buenos Aires,Lomas de Zamora,Lomas de Zamora,Cine Teatro Español Lomas De Zamora,Av. Hipolito Yrigoyen 9070,s/d,1832,s/d,42430381,lomasteatroespanol@gmail.com,https://www.facebook.com/cineteatroespanol/,,-34.761251,-58.402631,Localización precisa,INCAA / SInCA,Público municipal,1,522,SI,2018
62,6539010,6,6539,,Salas de cine,Buenos Aires,Merlo,San Antonio de Padua,Village,Av. Juan Domingo Peron 24056,s/d,1718,s/d,51688888,village.merlo@village.com.ar,https://www.villagecines.com/,,-34.66661,-58.702902,Localización precisa,INCAA / SInCA,Privado comercial,6,1315,,2018
63,6840010,6,6840,,Salas de cine,Buenos Aires,Tres de Febrero,Santos Lugares,Cine Teatro Ocean,Av. La Plata 3530,s/d,1676,s/d,47579861,inoya@tresdefebrero.gov.ar,https://www.tresdefebrero.gov.ar/noticias/cultura-y-educacin/reinauguracion-del-cine-teatro-ocean/,,-34.601301,-58.543873,Localización precisa,INCAA / SInCA,Público municipal,1,271,,2018
64,6014010,6,6014,,Salas de cine,Buenos Aires,Adolfo Gonzales Chaves,Gonzales Chaves,Cine Coliseo,Av. San Martin 235,Piso 1,7513,2983,481740,sespagch@hotmail.com,https://www.facebook.com/pg/ZarateCineTeatroColiseo/about/?ref=page_internal,,-38.031232,-60.096037,Localización precisa,INCAA / SInCA,Privado comercial,1,250,SI,2018
65,6105060,6,6105,,Salas de cine,Buenos Aires,Bolivar,Bolivar,María Esther Chiquita Domeño,Av. San Martin 642,s/d,6550,2314,480184,analia.carbajo@live.com,s/d,,-36.231224,-61.113367,Localización precisa,INCAA / SInCA,Privado comunitario ,1,256,SI,2018
66,6861010,6,6861,,Salas de cine,Buenos Aires,Vicente Lopez,Munro,Centro Cultural Municipal Munro,Av. Velez Sarsfield 4650,s/d,1605,s/d,47971162,york.cultura@vicentelopez.gov.ar,https://www.vicentelopez.gov.ar/modernizacion/punto-de-interes/3-centro-cultural-munro,,-34.530372,-58.523884,Localización precisa,INCAA / SInCA,Público municipal,1,540,,2018
67,6408010,6,6408,,Salas de cine,Buenos Aires,Hurlingham,Hurlingham,Centro Cultural Leopoldo Marechal,Av. Vergara 2396,s/d,1686,s/d,s/d,s/d,https://www.facebook.com/pages/Centro-Cultural-Leopoldo-Marechal-Hurlingham/297621827101262,,-34.576716,-58.641971,Localización precisa,INCAA / SInCA,Público municipal,1,600,,2018
68,6525020,6,6525,,Salas de cine,Buenos Aires,Marcos Paz,Marcos Paz,Cine Teatro Roma,Avellaneda 1950,s/d,1727,220,4776523,cine@marcospaz.gov.ar,https://www.facebook.com/pg/cinemarcospaz/about/?ref=page_internal,,-34.781222,-58.838623,Localización precisa,INCAA / SInCA,Público municipal,1,350,,2018
69,6371010,6,6371,,Salas de cine,Buenos Aires,General San Martin,Villa Ballester,José Hernández,Balcarce 2973,s/d,1653,s/d,47675752,soteras_jh_am@hotmail.com,https://www.facebook.com/pg/CineTeatroSalaJoseHernandez/about/?ref=page_internal,,-34.550658,-58.55834,Localización precisa,INCAA / SInCA,Privado comercial,1,660,,2018
70,6568010,6,6560,,Salas de cine,Buenos Aires,Moreno,El Palomar,Cine Teatro Helios,Boulevard San Martin 3076,s/d,1684,s/d,47518647,produccion@cineteatrohelios.com.ar,https://www.cinesargentinos.com.ar/horarios/c:733:cine-teatro-helios/,,-34.603921,-58.592904,Localización precisa,INCAA / SInCA,Privado comercial,1,349,SI,2018
71,6441030,6,6441,,Salas de cine,Buenos Aires,La Plata,La Plata,Taller De Teatro - UNLP,Calle 10 1076,s/d,1900,221,6239105,proyeccionesterrestres@gmail.com,https://www.facebook.com/pg/Clases-de-Teatro-La-Plata-124851047580248/about/?ref=page_internal,,-34.919824,-57.949853,Localización precisa,INCAA / SInCA,Privado comercial,1,100,,2018
72,6063010,6,6063,,Salas de cine,Buenos Aires,Balcarce,Balcarce,Cine Paris Balcarce,Calle 18 684,s/d,7620,2266,421703,complejoparis1@gmail.com,https://web.ultracine.com/nueva-sala-cine-paris-de-balcarce/,,-37.848567,-58.256225,Localización precisa,INCAA / SInCA,Privado comercial,1,272,,2018
73,6294050,6,6294,,Salas de cine,Buenos Aires,General Arenales,General Arenales,Cine Teatro Roma,Castelli 152,s/d,6005,2353,460583,mutualafc@yahoo.com.ar,https://www.facebook.com/pages/Cine-Teatro-Roma-General-Arenales/286484061815736,,-34.303846,-61.308525,Localización precisa,INCAA / SInCA,Privado comercial,1,208,,2018
74,6420020,6,6420,,Salas de cine,Buenos Aires,La Costa,San Bernardo,Cine Teatro Arenas,Chiozza 1776,s/d,7111,2257,460050,s/d,https://www.facebook.com/pg/Cine-Teatro-Arenas-3D-San-Bernardo-309783435805259/about/?ref=page_internal,,-36.699278,-56.677434,Localización precisa,INCAA / SInCA,Privado comercial,3,1358,,2018
75,6595070,6,6595,,Salas de cine,Buenos Aires,Olavarria,Olavarría,Cine Paris,General Paz 2720,s/d,7400,2284,417751,complejoparis1@gmail.com,http://www.cineparis.com.ar,,-36.894039,-60.323944,Localización precisa,INCAA / SInCA,Privado comercial,2,383,,2018
76,6042010,6,6042,,Salas de cine,Buenos Aires,Ayacucho,Ayacucho,Hugo Del Carril,Irigoyen 941,s/d,7150,2296,454949,isaiasalgañaraz@gmail.com,https://www.facebook.com/pages/category/Government-Organization/Direcci%C3%B3n-de-Cultura-Ayacucho-1677928362483344/,,-37.152582,-58.485966,Localización precisa,INCAA / SInCA,Público municipal,1,385,,2018
77,6413050,6,6413,,Salas de cine,Buenos Aires,Junin,Junín,Tu Cine,Jorge Newbery 263,s/d,6000,2364,422299,condor@dimarcointernacional.com,http://www.tucine.com.ar,,-34.583546,-60.945387,Localización precisa,INCAA / SInCA,Privado comercial,3,453,,2018
78,6861010,6,6861,,Salas de cine,Buenos Aires,Vicente Lopez,Olivos,Centro Cultural York,Juan Bautista Alberdi 895,s/d,1636,s/d,47119213,york.cultura@vicentelopez.gov.ar,https://www.facebook.com/cineteatroyorkolivos,,-34.507715,-58.484962,Localización precisa,INCAA / SInCA,Público municipal,1,280,,2018
79,6568010,6,6568,,Salas de cine,Buenos Aires,Moron,Morón,Hoyts,Juan Manuel De Rosas 658,s/d,1744,s/d,54441000,rmazzutti@hoyts.com.ar,https://www.cinemarkhoyts.com.ar/,,-34.634968,-58.629305,Localización precisa,INCAA / SInCA,Privado comercial,8,1865,,2018
80,6638040,6,6638,,Salas de cine,Buenos Aires,Pilar,Pilar,Multiplex,Las Magnolias 754,Piso 1,1629,230,4384812,ssomma@cinesmultiplex.com.ar,https://www.multiplex.com.ar/,,-34.447067,-58.867098,Localización precisa,INCAA / SInCA,Privado comercial,9,1407,,2018
81,6497060,6,6497,,Salas de cine,Buenos Aires,Lujan,Luján,Cinema Rosso,Lavalle 410,s/d,6700,2323,423954,cinema-rosso@hotmail.com,www.cinemarossolujan.com/,,-34.564152,-59.115852,Localización precisa,INCAA / SInCA,Privado comercial,2,197,,2018
82,6588100,6,6588,,Salas de cine,Buenos Aires,9 de Julio,9 de Julio,El Cine De La Biblioteca,Mendoza Y San Martin 991,s/d,6500,2317,457354,waltermarini@msn.com,https://www.facebook.com/bibliotecapopularjingenieros/about/,,-35.444914,-60.887912,Localización precisa,INCAA / SInCA,Privado comunitario ,1,90,,2018
83,6658010,6,6658,,Salas de cine,Buenos Aires,Quilmes,Quilmes,Cine Teatro Municipalidad De Quilmes,Mitre 721,s/d,1878,s/d,42532213,incaaquilmes@gmail.com,https://www.facebook.com/INCAAQuilmes/,,-34.722566,-58.253201,Localización precisa,INCAA / SInCA,Público municipal,1,415,si,2018
84,6182030,6,6182,,Salas de cine,Buenos Aires,Coronel de Marina L. Rosales,Punta Alta,Cinema Colon,Rivadavia 459,s/d,8109,11,68643237,k.jana@cinemacolon.com.ar,http://www.cinemacolon.com.ar,,-38.880196,-62.076721,Localización precisa,INCAA / SInCA,Privado comercial,1,390,,2018
85,6595070,6,6595,,Salas de cine,Buenos Aires,Olavarria,Olavarría,Flix Olavarría,Rivadavia 4730,s/d,7400,2281,444411,flix.olavarria@gmail.com,http://olavarria.flixcinema.com.ar/,,-36.880816,-60.304409,Localización precisa,INCAA / SInCA,Privado comercial,2,660,,2018
86,6826010,6,6826,,Salas de cine,Buenos Aires,Trenque Lauquen,Beruti,Cine Club La Luisa,San Martin 455,s/d,6424,2392,491112,deñegacionberuti@yahoo.com.ar / bttinaty@yahoo.com.ar,s/d,,-35.852614,-62.51235,Localización precisa,INCAA / SInCA,Público municipal,1,310,,2018
87,6826040,6,6826,,Salas de cine,Buenos Aires,Trenque Lauquen,30 De Agosto,Cine Teatro Santa Rosa De Lima,Santa Rosa De Lima 170,s/d,6405,2392,471739,comprasente30deagosto@cetl.com.ar,https://www.trenquelauquen.gov.ar/noticias/30-de-agosto-funciones-en-el-cine-santa-rosa/,,-36.278508,-62.544355,Localización precisa,INCAA / SInCA,Público municipal,1,410,,2018
88,6861010,6,6861,,Salas de cine,Buenos Aires,Vicente Lopez,Munro,Lumiton,Sargento Cabral 2354,s/d,1605,s/d,45806236,lumiton.usina@gmail.com,https://www.instagram.com/lumiton_usina/,,-34.527919,-58.515934,Localización precisa,INCAA / SInCA,Público municipal,1,30,,2018
89,6028010,6,6028,,Salas de cine,Buenos Aires,Almirante Brown,Adrogué,Cinemas Paseo Adrogué,Segui 699,s/d,1846,s/d,42140763,s/d,https://www.fandango.lat/ar/cines/cpm-cinemas-paseo-adrogue-190321-191200,,-34.800097,-58.396753,Localización precisa,INCAA / SInCA,Privado comercial,4,710,,2018
90,6840010,6,6840,,Salas de cine,Buenos Aires,Tres de Febrero,Caseros,Cine Teatro Paramount,Tres De Febrero 2561,s/d,1678,s/d,47501438,inoya@tresdefebrero.gov.ar,https://www.tresdefebrero.gov.ar/tema/cine-teatro-paramount/,,-34.605396,-58.563977,Localización precisa,INCAA / SInCA,Público municipal,2,645,SI,2018
91,10049030,10,10049,,Salas de cine,Catamarca,Capital,Catamarca,Cinemacenter,Av. Guemes 850,s/d,4700,3833,4423040,centercatamarca@cinemacenter.com.ar,http://www.cinemacenter.com.ar/,,-28.475867,-65.774581,Localización precisa,INCAA / SInCA,Privado comercial,5,914,,2018
92,22140060,22,22140,,Salas de cine,Chaco,San Fernando,Resistencia,Espacio Incaa Guido Miranda,Colón 164,s/d,3500,3624,4810748,lagomecita@hotmail.com,http://www.ecomchaco.com.ar/guidomiranda/default.htm,,-27.4556394,-58.9844801,Localización precisa,INCAA / SInCA,Público provincial,1,167,si,2018
93,22140060,22,22140,,Salas de cine,Chaco,San Fernando,Resistencia,Cinemacenter,Av. Lavalle 826,s/d,3500,3624,415999,centeravalos@cinemacenter.com.ar,http://www.cinemacenter.com.ar/,,-27.438214,-58.987038,Localización precisa,INCAA / SInCA,Privado comercial,5,792,,2018
94,22140060,22,22140,,Salas de cine,Chaco,San Fernando,Resistencia,Cinemacenter,Av. Dr. Sabin Y Av. Nicolas Avellaneda,s/d,3500,3722,446554,centerresistencia@cinemacenter.com.ar,http://www.cinemacenter.com.ar/,,-27.438747,-58.987285,Localización precisa,INCAA / SInCA,Privado comercial,3,690,,2018
95,26007020,26,26007,,Salas de cine,Chubut,Biedma,Puerto Madryn,Cine Teatro Auditorium,28 De Julio 129,s/d,9120,2804,455653,auditorium@madryn.com,http://www.cinemadryn.com/,,-42.766251,-65.035369,Localización precisa,INCAA / SInCA,Privado comercial,2,486,,2018
96,26035060,26,26035,,Salas de cine,Chubut,Futaleufu,Trevelin,Espacio INCAA Trevelin,28 De Julio 414,s/d,9203,2945,480145,culturatrevelin@gmail.com,https://cines.com/argentina/espacio-incaa-trevelin/,,-43.079516,-71.463135,Localización precisa,INCAA / SInCA,Público municipal,1,150,si,2018
97,26077040,26,26077,,Salas de cine,Chubut,Rawson,Trelew,Espacio INCAA Km 1460,9 De Julio 655,s/d,9100,280,4969388,donato.enrique@hotmail.com,https://www.facebook.com/pg/Sala-Incaa-Km-1460-Trelew-197525007014521/about/?ref=page_internal,,-43.253461,-65.316231,Localización precisa,INCAA / SInCA,Público municipal,1,100,si,2018
98,26035030,26,26035,,Salas de cine,Chubut,Futaleufu,Esquel,Auditorio Municipal De Esquel,Belgrano 330,s/d,9200,11,5081526,coordinacioncultura@yahoo.com.ar,https://www.facebook.com/CulturaEsquel/,,-42.914332,-71.33242,Localización precisa,INCAA / SInCA,Público municipal,1,243,,2018
99,26077040,26,26077,,Salas de cine,Chubut,Rawson,Trelew,Coliseo,Belgrano 375,Piso 1,9100,2804,425300,delcoliseosa@speedy.com.ar,https://www.facebook.com/Cine-Coliseo-Trelew-262482040443290/,,-43.252784,-65.307667,Localización precisa,INCAA / SInCA,Privado comercial,1,380,,2018
100,26077030,26,26077,,Salas de cine,Chubut,Rawson,Rawson,Centro Cultural José Hernández,Dr. Jorge Galina S/N,s/d,9103,2804,485564,cinerawsonchubut2014@gmail.com,https://www.facebook.com/media/set/?set=a.910604218955417.1073743674...type...,,-43.299858,-65.099487,Localización precisa,INCAA / SInCA,Privado comercial,1,400,si,2018
101,26021030,26,26021,,Salas de cine,Chubut,Escalante,Comodoro Rivadavia,Cine Coliseo,San Martin 570,s/d,9000,297,6210242,cinecr@speedy.com.ar,https://www.cinesargentinos.com.ar/horarios/c:511:coliseo-comodoro-rivadavia-/,,-45.861057,-67.482581,Localización precisa,INCAA / SInCA,Privado comercial,1,380,,2018
102,26021030,26,26021,,Salas de cine,Chubut,Escalante,Comodoro Rivadavia,Cine Teatro Español,San Martin 668,s/d,9000,297,6245762,cinecr@speedy.com.ar,http://www.cinecr.com.ar,,-45.861071,-67.484072,Localización precisa,INCAA / SInCA,Privado comercial,1,463,si,2018
103,18021020,18,18021,,Salas de cine,Corrientes,Capital,Corrientes,Los Cines De La Costa,Av. Centenario 3535,s/d,3400,3794,472200,centenario@loscinesdelacosta.com.ar,http://shopping.loscinesdelacosta.com.ar/index.php,,-27.481359,-58.766998,Localización precisa,INCAA / SInCA,Privado comercial,4,562,,2018
104,18021020,18,18021,,Salas de cine,Corrientes,Capital,Corrientes,Cinemacenter,Av. Pedro Ferre Y Chacabuco,s/d,3400,3794,423400,centercorrientes@cinemacenter.com.ar,http://www.cinemacenter.com.ar/,,-27.46464,-58.810635,Localización precisa,INCAA / SInCA,Privado comercial,5,1140,,2018
105,18035020,18,18035,,Salas de cine,Corrientes,Curuzu Cuatia,Curuzu Cuatiá,Sociedad Rural,Beron De Astrada 641,s/d,3460,s/d,s/d,nuevocineteatrorex@gmail.com,http://cinedelarural.com.ar,,-29.790473,-58.054474,Localización precisa,INCAA / SInCA,Privado comercial,1,300,,2018
106,18021020,18,18021,,Salas de cine,Corrientes,Capital,Corrientes,Costanera,Carlos Pellegrini 451/311,s/d,3400,3794,472200,costanera@loscinesdelacosta.com.ar,http://www.loscinesdelacosta.com.ar/,,-27.464752,-58.843015,Localización precisa,INCAA / SInCA,Privado comercial,2,358,,2018
107,18084020,18,18084,,Salas de cine,Corrientes,Ituzaingo,Ituzaingó,Leonardo Favio,Corrientes 1715,s/d,3302,3786,404273,wilfredodavid_50@hotmail.com,https://www.facebook.com/pg/CINEITU/about/,,-27.585687,-56.686985,Localización precisa,INCAA / SInCA,Público municipal,1,200,si,2018
108,18070020,18,18070,,Salas de cine,Corrientes,Goya,Goya,Cines De La Costa,España 659,s/d,3450,3794,472200,costanera@loscinesdelacosta.com.ar,www.micartelera.com.ar/cines.asp?id=3,,-29.144283,-59.266741,Localización precisa,INCAA / SInCA,Privado comercial,2,370,,2018
109,18119030,18,18119,,Salas de cine,Corrientes,Paso de los Libres,Paso de los Libres,Cine Teatro Opera,Los 108 941,s/d,3230,3772,424404,imc@mplibres.gob.ar,https://www.facebook.com/pg/Cineoperacorrientes/about/?ref=page_internal,,-29.7137101,-57.0855601,Localización precisa,INCAA / SInCA,Privado comercial,1,200,,2018
110,30008090,30,30008,,Salas de cine,Entre Ríos,Colon,San José,Cine Urquiza,25 De Mayo 1849,s/d,3283,343,4320151,nuevocineteatrorex@gmail.com,http://www.cineurquiza.com.ar,,-32.212515,-58.217901,Localización precisa,INCAA / SInCA,Privado comercial,1,250,,2018
111,30105060,30,30105,,Salas de cine,Entre Ríos,Victoria,Victoria,Cine Teatro Victoria,Alem 64,s/d,3153,343,6421005,culturamdv@gmail.com,https://www.cinesargentinos.com.ar/complejo/sala-municipal-cine-teatro-victoria/,,-32.6202247,-60.1572386,Localización precisa,INCAA / SInCA,Público municipal,1,299,si,2018
112,30015060,30,30015,,Salas de cine,Entre Ríos,Concordia,Concordia,Teatro Gran Odeon,Entre Rios 567,s/d,3200,345,4224758,fernandaaragon@fundacionodeon.com.ar,http://www.fundacionodeon.com.ar,,-31.398151,-58.018999,Localización precisa,INCAA / SInCA,Privado comercial,1,664,,2018
113,30098040,30,30098,,Salas de cine,Entre Ríos,Uruguay,Concepción del Uruguay,Cine Teatro San Martin,Estrada 820,s/d,3260,3442,426145,estudiocginepro@gmail.com,https://www.facebook.com/cinesanmartin/,,-32.48,-58.235156,Localización precisa,INCAA / SInCA,Privado comercial,1,457,,2018
114,30008020,30,30008,,Salas de cine,Entre Ríos,Colon,Villa Elisa,Centro Cultural La Fragua,Hector De Elia 1489,s/d,3265,3447,481779,asociacioncivillafragua@gmail.com,https://www.facebook.com/pg/asociacioncivillafragua/about/?ref=page_internal,,-32.1652711,-58.400087,Localización precisa,INCAA / SInCA,Público municipal,1,70,si,2018
115,30084160,30,30084,,Salas de cine,Entre Ríos,Parana,Paraná,Cine Rex,Monte Caseros 266,s/d,3100,343,4320151,nuevocinerex@gmail.com,https://www.cinerexparana.com/,,-31.735579,-60.53082,Localización precisa,INCAA / SInCA,Privado comercial,3,434,,2018
116,30113080,30,30113,,Salas de cine,Entre Ríos,Villaguay,Villaguay,Fundación Emilio Berisso,San Martin 540,s/d,3240,3455,414428,cineteatroberisso@gmail.com,https://www.facebook.com/pg/CineBerisso/about/?ref=page_internal,,-31.865115,-59.027433,Localización precisa,INCAA / SInCA,Privado comercial,1,350,,2018
117,34014020,34,34014,,Salas de cine,Formosa,Formosa,Formosa,Cine Teatro Italia,Av. 25 De Mayo 353,s/d,3600,3717,436447,cineteatroitalia@formosa.gov.ar,https://www.facebook.com/cine.italia/,,-26.18299644,-58.16838024,Localización precisa,INCAA / SInCA,Público provincial,1,565,si,2018
118,34014020,34,34014,,Salas de cine,Formosa,Formosa,Formosa,Avenida,Av. Juan Domingo Peron 757,s/d,3600,3704,420255,jimecaceres@hotmail.com,https://www.facebook.com/pg/Cines-Avenida-112830095434025/about/?ref=page_internal,,-26.169497,-58.181483,Localización precisa,INCAA / SInCA,Privado comercial,3,619,,2018
119,38042040,38,38042,,Salas de cine,Jujuy,Palpala,Palpala,Cine Teatro Altos Hornos Zapla,Av. Rio De La Plata 383,s/d,4612,388,4276689,claudio.caceres@imdpalpala.gob.ar,https://www.facebook.com/pg/CineAHZ/about/?ref=page_internal,,-24.2575926,-65.213095,Localización precisa,INCAA / SInCA,Privado comercial,1,1100,si,2018
120,38021060,38,38021,,Salas de cine,Jujuy,Dr. Manuel Belgrano,San Salvador de Jujuy,Cine Teatro Alfa,Patricias Argentinas 360,s/d,4600,388,4230426,cinealfajujuy@hotmail.com,https://twitter.com/cineteatroalfa,,-24.184494,-65.311156,Localización precisa,INCAA / SInCA,Privado comercial,2,856,,2018
121,42105030,42,42105,,Salas de cine,La Pampa,Maraco,Gral. Pico,Espacio Incaa-Cine & Teatro Pico,Calle 17 957,s/d,6360,2302,421776,italianaxx@speedy.com.ar,http://www.picocine.com.ar/,,-35.6605302,-63.7528695,Localización precisa,INCAA / SInCA,Privado comercial,1,534,si,2018
122,42105030,42,42105,,Salas de cine,La Pampa,Maraco,Gral. Pico,Cine Gran Pampa,Calle 20 642,s/d,6360,2302,421776,italianaxx@speedy.com.ar,https://cines.com › Inicio › La Pampa › General Pico,,-35.658982,-63.753935,Localización precisa,INCAA / SInCA,Privado comercial,1,730,,2018
123,42021020,42,42021,,Salas de cine,La Pampa,Capital,Santa Rosa,Amadeus,Coronel Gil 31,s/d,6300,2954,458160,administracion@cinedonbosco3d.com.ar, www.cineamadeus.com.ar/,,-36.619904,-64.289902,Localización precisa,INCAA / SInCA,Privado comercial,1,223,,2018
124,42021020,42,42021,,Salas de cine,La Pampa,Capital,Santa Rosa,Espacio Incaa Santa Rosa,Quintana 172,s/d,6300,2954,772893,contablecultura.santarosa@hotmail.com,https://www.facebook.com/Espacio-INCAA-Santa-Rosa-715759378505317/,,-36.6188275,-64.2933999,Localización precisa,INCAA / SInCA,Público municipal,1,118,si,2018
125,46014010,46,46014,,Salas de cine,La Rioja,Capital,La Rioja,Cinemacenter,Av. Abel Bazan Y Bustos 710,s/d,5300,3804,461893,centerlarioja@cinemacenter.com.ar,http://www.cinemacenter.com.ar/,,-29.41152524,-66.85814976,Localización precisa,INCAA / SInCA,Privado comercial,4,769,,2018
126,46014010,46,46014,,Salas de cine,La Rioja,Capital,La Rioja,Espacio 73,Catamarca 73,s/d,5300,3804,468432,coord.mediosaudiovisuales@gmail.com,http://www.culturalarioja.gob.ar,,-29.412852,-66.8593276,Localización precisa,INCAA / SInCA,Público nacional,1,128,si,2018
127,46014010,46,46014,,Salas de cine,La Rioja,Capital,La Rioja,Cinema,Pelagio Luna 960,s/d,5300,3804,463383,ericontadoralinares@gmail.com,http://cinema3dlarioja.com/,,-29.412799,-66.861693,Localización precisa,INCAA / SInCA,Privado comercial,2,292,,2018
128,46014010,46,46014,,Salas de cine,La Rioja,Capital,La Rioja,Cinema,San Martin 62,s/d,5300,3804,463386,ericontadoralinares@gmail.com,http://cinema3dlarioja.com/,,-29.41478,-66.857701,Localización precisa,INCAA / SInCA,Privado comercial,1,72,,2018
129,54091080,54,54091,,Salas de cine,Misiones,Obera,Oberá,Cine Casinos,Av. Sarmiento 1044,s/d,3360,3755,425011,cinesobera@arnetbiz.com.ar,www.cinescasinoobera.com.ar/,,-27.48614,-55.123172,Localización precisa,INCAA / SInCA,Privado comercial,2,292,,2018
130,54028030,54,54028,,Salas de cine,Misiones,Capital,Posadas,Sunstar,Bolivar 1979,s/d,3300,376,438666,gerente.posadas@sunstar.com,http://www.cinesunstar.com/,,-27.366775,-55.895626,Localización precisa,INCAA / SInCA,Privado comercial,4,559,,2018
131,54091080,54,54091,,Salas de cine,Misiones,Obera,Oberá,Cine Teatro Obera,San Martin 1069,s/d,3360,3755,408625,cineteatro.obera@outlook.com,https://www.facebook.com/CineTeatroObera/,,-27.488208,-55.122305,Localización precisa,INCAA / SInCA,Público municipal,1,220,si,2018
132,58035070,58,58035,,Salas de cine,Neuquén,Confluencia,Neuquén,Village,Av. Antartida Argentina 1111,s/d,8300,2994,471500,village.neuquen@village.com.ar,https://www.villagecines.com/,,-38.947535,-68.080141,Localización precisa,INCAA / SInCA,Privado comercial,7,1894,,2018
133,58035070,58,58035,,Salas de cine,Neuquén,Confluencia,Neuquén,Cine Teatro Español,Av. Argentina 245,s/d,8300,2994,429747,clau_diaz@hotmail.com,https://www.facebook.com/cineteatronqn/,,-38.952502,-68.0588685,Localización precisa,INCAA / SInCA,Privado comercial,1,639,si,2018
134,58035040,58,58035,,Salas de cine,Neuquén,Confluencia,Cutral-Co,Cine Rex Cutral-Co,Av. Del Trabajo 676,s/d,8200,s/d,s/d,iturbemariano@gmail.com,http://www.cinerexcutralco.com.ar/index.php,,-38.937145,-69.228886,Localización precisa,INCAA / SInCA,Privado comercial,1,290,,2018
135,58056010,58,58056,,Salas de cine,Neuquén,Lacar,San Martín de los Andes,Centro Cultural Costema,Gral. Roca 1154,s/d,8370,2972,428399,cccotesma@cotesma.com.ar,http://centrocultural.cotesma.com.ar/agenda-de-cine,,-40.157383,-71.3518372,Localización precisa,INCAA / SInCA,Privado comercial,2,398,si,2018
136,58112040,58,58112,,Salas de cine,Neuquén,Zapala,Zapala,Cine Teatro Municipal Amado Sapag,San Martin 281,s/d,8340,2942,421664,jjjeldrez@hotmail.com,https://www.facebook.com/Cine-Teatro-de-Zapala-1558752601048983/,,-38.9035456,-70.0649182,Localización precisa,INCAA / SInCA,Público municipal,1,738,si,2018
137,62042560,62,62042,,Salas de cine,Río Negro,General Roca,Villa Regina,Cine Teatro Circulo Italiano,Av. Rivadavia 117,s/d,8336,298,4588456,espacioincaavillaregina@gmail.com,http://cineteatrocirculo.com.ar/tags/cine,,-39.09326355,-67.08392556,Localización precisa,INCAA / SInCA,Privado comercial,1,661,si,2018
138,62042450,62,62042,,Salas de cine,Río Negro,General Roca,Gral. Roca,Cine Rex,Av. Roca 1585,s/d,8332,343,5122308,iturbemariano@gmail.com,http://cinerexroca.com.ar,,-39.027377,-67.575436,Localización precisa,INCAA / SInCA,Privado comercial,2,300,,2018
139,62042390,62,62042,,Salas de cine,Río Negro,General Roca,Cinco Saltos,Cine Teatro Español,Av. Roca 326,s/d,8303,299,4980122,asoc.esp.cinco.saltos@gmial.com,https://www.facebook.com/pg/Cine-Teatro-Espa%C3%B1ol-Cinco-Saltos-1534103586894165/about/?ref=page_internal,,-38.828301,-68.064467,Localización precisa,INCAA / SInCA,Privado comercial,1,320,si,2018
140,62007090,62,62007,,Salas de cine,Río Negro,Adolfo Alsina,Viedma,Cine Gama,Gallardo 160,s/d,8500,2920,432286,cinegama@yahoo.com.ar,https://cines.com/argentina/cine-gama/,,-40.810812,-62.988497,Localización precisa,INCAA / SInCA,Privado comercial,1,350,,2018
141,62021060,62,62021,,Salas de cine,Río Negro,Bariloche,Bariloche,Sunstar,Onelli 447,s/d,8400,2944,433128,gerente.bariloche@cinesunstar.com,http://www.cinesunstar.com/,,-41.133472,-71.310278,Localización precisa,INCAA / SInCA,Privado comercial,3,461,,2018
142,62021060,62,62021,,Salas de cine,Río Negro,Bariloche,Bariloche,La Llave,Sobral Y Onelli,s/d,8400,294,421599,comunicacionculturalmscb@bariloche.com.ar,https://www.facebook.com/escuelalallavebariloche/,,-41.15479963,-71.30052075,Localización precisa,INCAA / SInCA,Público municipal,1,100,si,2018
143,62014040,62,62014,,Salas de cine,Río Negro,Avellaneda,Choele Choel,Sala Municipal Espacio Incaa,Tello Y Av. San Martin,s/d,8360,298,4555525,secdesarrollosocialchoele@hotmail.com,https://www.facebook.com/EspacioIncaaKm1000ChoeleChoel/,,-39.287991,-65.665398,Localización precisa,INCAA / SInCA,Público municipal,1,282,si,2018
144,66028050,66,66028,,Salas de cine,Salta,Capital,Salta,Cine Rex,Av. San Martin 1170,s/d,4400,387,4889200,zingone@arnet.com.ar,https://www.facebook.com/pg/Cine-Rex-Salta-1989566067982401/about/?ref=page_internal,,-24.792967,-65.419175,Localización precisa,INCAA / SInCA,Privado comercial,2,353,,2018
145,66056220,66,66056,,Salas de cine,Salta,Grl. Jose de San Martin,Tartagal,Open Plaza,Guemes 421,s/d,4560,s/d,s/d,adrianc@ferreterianorte.com.ar, http://www.cineopenplaza.com.ar,,-22.515933,-63.805018,Localización precisa,INCAA / SInCA,Privado comercial,1,220,,2018
146,66126070,66,66126,,Salas de cine,Salta,Oran,Orán,Cine Municipal De La Cultura Oran,Hipolito Yrigoyen 137,s/d,4530,3878,421274,culturaoran@gmail.com,https://www.facebook.com/Cine-Municipal-Espacios-Incaa-Oran-473261419496188/,,-23.1351322,-64.3222154,Localización precisa,INCAA / SInCA,Público municipal,1,280,si,2018
147,66028050,66,66028,,Salas de cine,Salta,Capital,Salta,Hogar Escuela,Pje. Chiclana Esq. H. Irigoyen S/N,s/d,4400,387,4228669,ministro@cultura.salta.gov.ar,http://www.culturasalta.gov.ar/contenidos/espacio-incaa-hogar-escuela/50,,-24.795919,-65.39997,Localización precisa,INCAA / SInCA,Público provincial,1,354,si,2018
148,66028050,66,66028,,Salas de cine,Salta,Capital,Salta,Opera,Urquiza 560,s/d,4400,387,4213297,zingone@arnet.com.ar,https://www.facebook.com/pages/category/Drive-In-Movie-Theater/Cine-Opera-Salta-155718934490642/,,-24.792403,-65.410758,Localización precisa,INCAA / SInCA,Privado comercial,2,682,,2018
149,66028050,66,66028,,Salas de cine,Salta,Capital,Salta,Hoyts,Virrey Toledo 702,s/d,4400,s/d,57771000,rmazzutti@hoyts.com.ar,https://www.cinemarkhoyts.com.ar/,,-24.781472,-65.403547,Localización precisa,INCAA / SInCA,Privado comercial,8,1362,,2018
150,70028010,70,70028,,Salas de cine,San Juan,Capital,San Juan,Cinemacenter,Av. Circunvalacion Y Escalabrini Ortiz,s/d,5400,264,4212121,centersanjuan@cinemacenter.com.ar,http://www.cinemacenter.com.ar/,,-31.522593,-68.542604,Localización precisa,INCAA / SInCA,Privado comercial,8,1803,,2018
151,70028010,70,70028,,Salas de cine,San Juan,Capital,San Juan,Play Cinema,Av. Libertador 1826 (Oeste),s/d,5400,264,4309000,admnistracion@playcinema.net,http://www.playcinema.net/,,-31.531766,-68.551432,Localización precisa,INCAA / SInCA,Privado comercial,6,1071,,2018
152,70028010,70,70028,,Salas de cine,San Juan,Capital,San Juan,Cine Teatro Municipal San Juan,B. Mitre 41 Este,s/d,5400,264,4213295,cineteatromunicipalsj@gmail.com,http://www.municipiosanjuan.gob.ar/?q=content/cartelera-del-cine-teatro-municipal,,-31.537768,-68.525297,Localización precisa,INCAA / SInCA,Público municipal,1,416,si,2018
153,70028010,70,70028,,Salas de cine,San Juan,Capital,San Juan,Fundación Iopps,Pedro Echague Oeste 475,s/d,5400,264,4219787,iopps@speedy.com.ar,https://www.facebook.com/ioppscultura/,,-31.53005,-68.519907,Localización precisa,INCAA / SInCA,Privado comercial,1,180,,2018
154,70028010,70,70028,,Salas de cine,San Juan,Capital,San Juan,UPCN - San Juan,Sarmiento 461 Sur,s/d,5400,264,4214611,adolfomallea@yahoo.com.ar,http://www.upcndigital.org/san-juan,,-31.52639,-68.533644,Localización precisa,INCAA / SInCA,Privado independiente,1,298,si,2018
155,74056150,74,74056,,Salas de cine,San Luis,La Capital,San Luis,Cinemacenter,J. A. Roca 260,s/d,5700,2664,441001,centerluis@cinemacenter.com.ar,http://www.cinemacenter.com.ar/,,-33.309224,-66.327647,Localización precisa,INCAA / SInCA,Privado comercial,7,1951,,2018
156,74035070,74,74035,,Salas de cine,San Luis,General Pedernera,Villa Mercedes,Fénix,Pueyrredon 1651,s/d,5730,2657,425513,hm@cinesdigitales.com,http://www.cinesfenix.com,,-33.663019,-65.464344,Localización precisa,INCAA / SInCA,Privado comercial,3,475,,2018
157,78014060,78,78014,,Salas de cine,Santa Cruz,Deseado,Las Heras,Osvaldo Jorge Bayer,13 De Diciembre Y Malvinas S/N,s/d,9017,297,4974923,centroculturallasheras@gmail.com,https://www.facebook.com/pg/centroculturallasheras/about/?ref=page_internal,,-46.538589,-68.944153,Localización precisa,INCAA / SInCA,Privado comercial,1,196,,2018
158,78042010,78,78042,,Salas de cine,Santa Cruz,Magallanes,Puerto San Julian,Cine Teatro Talia,25 De Mayo 1188,s/d,9310,2962,415893,cineteatrotalia1930@gmail.com,https://www.facebook.com/pg/cineteatrotalia/about/?ref=page_internal,,-49.315227,-67.722103,Localización precisa,INCAA / SInCA,Privado comercial,1,340,si,2018
159,78014010,78,78014,,Salas de cine,Santa Cruz,Deseado,Caleta Olivia,Asociación Amigos Del Arte Mechenien,J. Newbery Esq. Deocarets S/N,Piso 1,9011,297,4851770,mechenien_asociacion@hotmail.com,https://www.mechenien.org.ar/,,-46.437506,-67.52675,Localización precisa,INCAA / SInCA,Privado comercial,1,350,si,2018
160,86035090,86,86035,,Salas de cine,Santiago del Estero,Banda,La Banda,Cinemacenter,Aut. Juan D. Peron S/N Parque Industrial,s/d,4200,385,4373184,cinessantiago@cinemacenter.com.ar,http://www.cinemacenter.com.ar/,,-27.762487,-64.244804,Localización precisa,INCAA / SInCA,Privado comercial,3,822,,2018
161,86035090,86,86035,,Salas de cine,Santiago del Estero,Banda,La Banda,Cine Teatro Municipal Renzi,Av. Besares 151,s/d,4300,385,4279188,Alejandro_jozami@hotmail.com,https://www.facebook.com/CineRenzi/,,-27.7317514,-64.2426123,Localización precisa,INCAA / SInCA,Público municipal,1,152,si,2018
162,86049110,86,86049,,Salas de cine,Santiago del Estero,Capital,Santiago del Estero,Sunstar,Av. Rivadavia Y Ejercito Argentino,s/d,4200,385,4213666,gerente.santiago@cinesunstar.com,http://www.cinesunstar.com/,,-27.78442,-64.267281,Localización precisa,INCAA / SInCA,Privado comercial,5,1585,,2018
163,94007010,94,94007,,Salas de cine,Tierra del Fuego,Rio Grande,Río Grande,El Cine,9 De Julio 838,s/d,9420,2964,422648,roviola@gmail.com,http://www.cinemas4riogrande.com.ar,,-53.790081,-67.697959,Localización precisa,INCAA / SInCA,Privado comercial,2,584,,2018
164,94014020,94,94014,,Salas de cine,Tierra del Fuego,Ushuaia,Ushuaia,Sunstar,Av. Perito Moreno 1460,s/d,9410,2901,442702,gerente.ushuaia@cinesunstar.com,http://www.cinesunstar.com/,,-54.7999427,-68.2801151,Localización precisa,INCAA / SInCA,Privado comercial,3,561,,2018
165,94014020,94,94014,,Salas de cine,Tierra del Fuego,Ushuaia,Ushuaia,Cine Teatro Pakewaia,Yaganes Y Gob Paz (Base Naval),s/d,9410,2901,424566,cine@gamaproducciones.com.ar,www.cinepackewaia.com.ar/,,-54.801912,-68.302951,Localización precisa,INCAA / SInCA,Privado comercial,1,300,,2018
166,90119030,90,90119,,Salas de cine,Tucumán,Yerba Buena,Yerba Buena,Cines Del Solar,Av. Aconquija 1336,s/d,4107,381,4253050,cinesdelsolar@hotmail.com,http://solardelcerro.com,,-26.814179,-65.288937,Localización precisa,INCAA / SInCA,Privado comercial,5,750,,2018
167,90105080,90,90105,,Salas de cine,Tucumán,Tafi Viejo,Tafí Viejo,Espacio Incaa Tafí Viejo C. Teatro Sociedad Española,Av. Alem 418,s/d,4103,381,6399995,ncapola@gmail.com,https://www.facebook.com/espacioincaatafiviejo/,,-26.7304223,-65.2591316,Localización precisa,INCAA / SInCA,Privado independiente,1,830,si,2018
168,90119030,90,90119,,Salas de cine,Tucumán,Yerba Buena,Yerba Buena,Sunstar,Av. Fermin Carriola 42,s/d,4107,381,4357463,gerente.tucuman@cinesunstar.com,http://www.cinesunstar.com/,,-26.820976,-65.265894,Localización precisa,INCAA / SInCA,Privado comercial,6,1295,,2018
169,90084010,90,90084,,Salas de cine,Tucumán,Capital,San Miguel de Tucumán,Microcine Orión,Av. Mitre 817,s/d,4000,381,6374808,cineorion@hotmail.com,https://www.facebook.com/search/top/?q=MICROCINE%20ORION,,-26.817212,-65.215481,Localización precisa,INCAA / SInCA,Público municipal,1,36,,2018
170,90084010,90,90084,,Salas de cine,Tucumán,Capital,San Miguel de Tucumán,Cinemacenter,Av. Nestor Kirchner(Ex Av. Roca) 3450,Piso 1,4000,381,4361405,cctucuman@cinemacenter.com.ar,http://www.cinemacenter.com.ar/,,-26.83447,-65.252298,Localización precisa,INCAA / SInCA,Privado comercial,5,1051,,2018
171,90084010,90,90084,,Salas de cine,Tucumán,Capital,San Miguel de Tucumán,Atlas Cine,Monteagudo 250,s/d,4000,381,4220825,rabdenur@gmail.com,cineatlasweb.com.ar,,-26.828516,-65.199312,Localización precisa,INCAA / SInCA,Privado comercial,3,797,,2018
172,90084010,90,90084,,Salas de cine,Tucumán,Capital,San Miguel de Tucumán,Espacio Incaa Sala Orestes Caviglia,San Martin 251,s/d,4000,381,4307678,mediosaudiovisuales.ect@arnetbiz.com.ar,https://enteculturaltucuman.gob.ar/#teatros,,-26.8303703,-65.200703,Localización precisa,INCAA / SInCA,Público provincial,1,183,si,2018
173,82063170,82,82063,,Salas de cine,Santa Fe,La Capital,Santa Fe,Cine América,25 De Mayo 3075,s/d,3000,342,4190285,guillermoarch@hotmail.com,http://www.plateasantafe.com,,-31.640525,-60.70422,Localización precisa,INCAA / SInCA,Privado comercial,1,380,,2018
174,82042290,82,82042,,Salas de cine,Santa Fe,General Lopez,Venado Tuerto,Cinema Casey,Av. Casey 790,Piso 1,2600,3462,400100,cinemacasey@hotmail.com,http://cinemacasey.com.ar,,-33.746371,-61.968125,Localización precisa,INCAA / SInCA,Privado comercial,2,249,,2018
175,82042220,82,82042,,Salas de cine,Santa Fe,General Lopez,Rufino,Sala Hispano,Av. Cobo 185,Planta Alta,6100,3382,409088,espacioincaarufino@gmail.com,htpp:/www.espacios.incaa.gov.ar,,-34.2630949,-62.71155166,Localización precisa,INCAA / SInCA,Público nacional,1,330,si,2018
176,82014050,82,82014,,Salas de cine,Santa Fe,Caseros,Casilda,Cine Teatro Libertador,Buenos Aires 2441,s/d,2170,3464,422381,cinelibertador@arnetbiz.com.ar,http://www.cinelibertador.com.ar,,-33.046245,-61.169568,Localización precisa,INCAA / SInCA,Privado comercial,1,1014,,2018
177,82021310,82,82021,,Salas de cine,Santa Fe,Castellanos,Rafaela,Cine Teatro Municipal Manuel Belgrano,Bv. Santa Fe 555,s/d,2300,3492,422114,cinebelgrano@wilnet.com.ar,http://www.rafaela.gob.ar/cine/,,-31.2537076,-61.4856456,Localización precisa,INCAA / SInCA,Público municipal,1,1049,si,2018
178,82021340,82,82021,,Salas de cine,Santa Fe,Castellanos,San Vicente,Brown Cinema,Cangallo 304,s/d,2447,3492,470396,brown@coopmail.com.ar,http://browncinema3d.com.ar/home.php,,-31.698952,-61.567196,Localización precisa,INCAA / SInCA,Privado comercial,1,224,,2018
179,82084270,82,82084,,Salas de cine,Santa Fe,Rosario,Rosario,Microcine De La Cortada,Ctda Ricardone 1244,s/d,2000,341,4498408,microcinedelacortada@hotmail.com,https://www.facebook.com/pg/cinedelacortada.condicionado/about/?ref=page_internal,,-32.94773,-60.640286,Localización precisa,INCAA / SInCA,Privado comercial,1,96,,2018
180,82063170,82,82063,,Salas de cine,Santa Fe,La Capital,Santa Fe,Cinemark,Dique 1 Puerto Santa Fe,s/d,3000,s/d,57771000,iventura@cinemark.com.ar,https://www.cinemarkhoyts.com.ar,,-31.648852,-60.70404,Localización precisa,INCAA / SInCA,Privado comercial,7,1527,,2018
181,82126140,82,82126,,Salas de cine,Santa Fe,San Martin,San Jorge,Trigital Cines SRL,Eva Peron 1388,s/d,2451,3562,405750,s/d,http://www.lastipassanjorge.com.ar/,,-31.895262,-61.8595,Localización precisa,INCAA / SInCA,Privado comercial,1,260,,2018
182,82084270,82,82084,,Salas de cine,Santa Fe,Rosario,Rosario,Village,Eva Peron 5856,s/d,2000,341,5161111,village.rosario@village.com.ar,https://www.villagecines.com/,,-32.933053,-60.712949,Localización precisa,INCAA / SInCA,Privado comercial,13,3458,,2018
183,82049180,82,82049,,Salas de cine,Santa Fe,General Obligado,Reconquista,Cine Recite,Habegger 755,s/d,3560,3482,621973,cinerecite@gmail.com // viviandreaperalta@gmail.com,http://www.cinerecite.com.ar,,-29.148596,-59.642839,Localización precisa,INCAA / SInCA,Privado comercial,1,156,,2018
184,82084270,82,82084,,Salas de cine,Santa Fe,Rosario,Rosario,Showcase,Junin 501,s/d,2000,341,4360600,naiarg@naiarg.com.ar,http://www.rosariocine.com.ar/horarios/cine/showcase,,-32.926503,-60.670806,Localización precisa,INCAA / SInCA,Privado comercial,14,3391,,2018
185,82084270,82,82084,,Salas de cine,Santa Fe,Rosario,Rosario,Hoyts,Nansen 323,s/d,2000,s/d,57771000,rmazzutti@hoyts.com.ar,https://www.cinemarkhoyts.com.ar/,,-32.909461,-60.683084,Localización precisa,INCAA / SInCA,Privado comercial,9,1911,,2018
186,82084270,82,82084,,Salas de cine,Santa Fe,Rosario,Rosario,Cines Del Centro,Rioja 1660,Planta Alta,2000,341,4815519,s/d,http://www.rosariocine.com.ar/horarios/cine/cines-del-centro,,-32.946177,-60.646324,Localización precisa,INCAA / SInCA,Privado comercial,4,659,,2018
187,82084270,82,82084,,Salas de cine,Santa Fe,Rosario,Rosario,Monumental,San Martin 993,s/d,2000,s/d,s/d,ciamonumentalrosario@gmail.com,https://www.multiplex.com.ar/,,-32.94899,-60.637338,Localización precisa,INCAA / SInCA,Privado comercial,9,1471,,2018
188,82084270,82,82084,,Salas de cine,Santa Fe,Rosario,Rosario,El Cairo,Santa Fe 1120,s/d,2000,341,4721851,carodesantis@hotmail.com,http://elcairocinepublico.gob.ar/,,-32.95144,-60.639437,Localización precisa,INCAA / SInCA,Público provincial,1,442,,2018
189,82084270,82,82084,,Salas de cine,Santa Fe,Rosario,Rosario,Arteon,Sarmiento 778,Planta Alta,2000,341,4268841,arteon01@gmail.com,http://www.arteon.com.ar/#!/-cine/,,-32.946182,-60.638166,Localización precisa,INCAA / SInCA,Privado comercial,1,186,si,2018
190,82084270,82,82084,,Salas de cine,Santa Fe,Rosario,Rosario,Centro Cultural Cine Lumiere,Velez Sarfield 1029,s/d,2000,341,4804816,mdorigo@rosario.gov.ar,http://www.lumiererosario.gob.ar,,-32.924992,-60.677156,Localización precisa,INCAA / SInCA,Público municipal,1,420,,2018
191,50098100,50,50098,,Salas de cine,Mendoza,San Martin,San Martín,Cine Cervantes San Martin,9 De Julio 187,s/d,5570,2634,432786,cebriancine@gmail.com,http://www.cinecervantes.com,,-33.080928,-68.471596,Localización precisa,INCAA / SInCA,Privado comercial,1,328,,2018
192,50007010,50,50007,,Salas de cine,Mendoza,Capital,Mendoza,Microcine Municipal David Einsenchlas,9 De Julio 500,Subsuelo,5500,261,4495184,microcinemunicipal@gmail.com//elvuelocine@gmail.com,s/d,,-32.896563,-68.842488,Localización precisa,INCAA / SInCA,Público municipal,1,115,,2018
193,50007010,50,50007,,Salas de cine,Mendoza,Capital,Mendoza,Village,Av. Acceso Este 3280 Lateral Norte,s/d,5521,261,4616161,village.mendoza@village.com.ar,https://www.villagecines.com/,,-32.902037,-68.798003,Localización precisa,INCAA / SInCA,Privado comercial,10,2344,,2018
194,50021010,50,50021,,Salas de cine,Mendoza,Godoy Cruz,Godoy Cruz,Ctro Cultural Cine Plaza,Colon 27,s/d,5501,261,4133255,cineplaza@godoycruz.gov.ar,https://www.godoycruz.gob.ar/,,-32.924858,-68.844975,Localización precisa,INCAA / SInCA,Público municipal,1,1000,,2018
195,50070060,50,50070,,Salas de cine,Mendoza,Maipu,Maipú,Village,Emilio Civit Y Maza,s/d,5515,261,4616161,village.maipu@village.com.ar,https://www.villagecines.com/,,-32.974843,-68.796178,Localización precisa,INCAA / SInCA,Privado comercial,5,949,,2018
196,50007010,50,50007,,Salas de cine,Mendoza,Capital,Mendoza,Cinemacenter,Las Cañas 1833,s/d,5519,261,4598173,centermendoza@cinemacenter.com.ar,http://www.cinemacenter.com.ar/,,-32.912576,-68.820262,Localización precisa,INCAA / SInCA,Privado comercial,6,1361,,2018
197,50007010,50,50007,,Salas de cine,Mendoza,Capital,Mendoza,Porky`S,Lavalle 32,Piso 1,5500,261,4288740,gabrielmontes67@hotmail.com,https://www.facebook.com/pg/CINE-XXX-Porkis-Mendoza-287672825017939/about/?ref=page_internal,,-32.888518,-68.838264,Localización precisa,INCAA / SInCA,Privado comercial,1,70,,2018
198,50084140,50,50084,,Salas de cine,Mendoza,Rivadavia,Rivadavia,Centro Cultural Juan Centorbi,Lavalle 740,s/d,5577,2623,4442619,ggvalverde@hotmail.com,https://www.mendozaeventos.com/lugar/122/1/centro-cultural-municipal-juan-centorbi,,-33.193378,-68.46537,Localización precisa,INCAA / SInCA,Público municipal,1,963,,2018
199,50007010,50,50007,,Salas de cine,Mendoza,Capital,Mendoza,Cine Universidad,Maza 240 Entre Mitre Y Av. España,s/d,5500,11,6259251,armandoluisgonzalez70@gmail.com,http://cine.uncuyo.edu.ar/,,-32.888547,-68.837395,Localización precisa,INCAA / SInCA,Público nacional,2,350,,2018
200,50070060,50,50070,,Salas de cine,Mendoza,Maipu,Maipú,Cine Teatro Imperial,Pablo Pescara Y Peron,s/d,5515,261,4815634,cine_taller@hotmail.com,https://www.facebook.com/pg/Cineteatroimperial/about/?ref=page_internal,,-32.98293032,-68.78722763,Localización precisa,INCAA / SInCA,Privado comercial,1,600,si,2018
201,50028020,50,50028,,Salas de cine,Mendoza,Guaymallen,Guaymallen,Cine Teatro Armando Tejada Gómez,Pedro Molina 110,s/d,5519,261,4453515,cineteatrorecreo@yahoo.com.ar,https://www.facebook.com/cineteatrorecreo.guaymallen/photos/a.595121797331400/595121603998086/?type=1&theater,,-32.8792615,-68.8268157,Localización precisa,INCAA / SInCA,Público municipal,1,250,si,2018
202,50077040,50,50077,,Salas de cine,Mendoza,Malargue,Malargüe,Sala Maitén,Ruta 40 Norte Y Pje Orteguina,s/d,5613,2604,470027,cinemaiten@malargue.gov.ar,https://www.malargue.gov.ar/?cat=735,,-35.48035,-69.58467,Localización precisa,INCAA / SInCA,Público municipal,1,160,,2018
203,50021010,50,50021,,Salas de cine,Mendoza,Godoy Cruz,Godoy Cruz,Cinemark,Ruta Panamericana 2650,s/d,5501,s/d,57771000,iventura@cinemark.com.ar,https://www.cinemarkhoyts.com.ar,,-32.952537,-68.855684,Localización precisa,INCAA / SInCA,Privado comercial,10,1681,,2018
204,50105210,50,50105,,Salas de cine,Mendoza,San Rafael,San Rafael,Cine Amelix,San Martin 139,s/d,5600,2064,427171,cineamelix@gmail.com,https://www.facebook.com/CineAmelix/,,-34.614613,-68.329305,Localización precisa,INCAA / SInCA,Privado comercial,2,359,,2018
205,14140030,14,14140,,Salas de cine,Córdoba,San Justo,Arroyito,Cinema 2000,Belgrano Esq. Rafael Nuñez,s/d,2434,3576,422515,marcelatorressi@cescom.net.ar,https://www.facebook.com/pg/Cinema.2000.Arroyito.3D/about/?ref=page_internal,,-31.415409,-63.050541,Localización precisa,INCAA / SInCA,Privado comercial,1,207,,2018
206,14182080,14,14182,,Salas de cine,Córdoba,Union,Canals,Guillermo J. Nolter,Moreno Y Sarmiento,s/d,2650,3463,420041,coopcanals@canalsnet.com.ar,https://www.cinecoop3d.com/elcine.php,,-33.561974,-62.881592,Localización precisa,INCAA / SInCA,Privado comercial,1,200,,2018
207,14091040,14,14091,,Salas de cine,Córdoba,Punilla,Capilla del Monte,Enrique Muiño,Sarmiento 318,s/d,5184,3548,481026,cultura@capilladelmonte.gov.ar,https://www.facebook.com/pages/Cine-Enrique-Mui%C3%B1o-Capilla-Del-Monte/314551692070477,,-30.85635,-64.525875,Localización precisa,INCAA / SInCA,Privado comercial,1,413,,2018
208,14014010,14,14014,,Salas de cine,Córdoba,Capital,Córdoba,Cine Arte Córdoba,27 De Abril 275,s/d,5000,351,421214,danhid12@hotmail.com,https://www.facebook.com/Cine-Arte-Cordoba-1386051238374665/,,-31.415918,-64.188507,Localización precisa,INCAA / SInCA,Privado comercial,1,210,,2018
209,14014010,14,14014,,Salas de cine,Córdoba,Capital,Córdoba,Cinerama,Av. Colon 345,s/d,5000,351,4210221,albertomo@arnet.com.ar,https://www.cinerama.com.ar/,,-31.41215,-64.18797,Localización precisa,INCAA / SInCA,Privado comercial,4,755,,2018
210,14014010,14,14014,,Salas de cine,Córdoba,Capital,Córdoba,Dinosaurio Mall,Av. Fuerza Aerea 1700,s/d,5009,351,5261500,cluduena@grupodinosaurio.com,https://www.cinesdinomall.com.ar/Inicio,,-31.430367,-64.213755,Localización precisa,INCAA / SInCA,Privado comercial,7,1385,,2018
211,14014010,14,14014,,Salas de cine,Córdoba,Capital,Córdoba,Gran Rex,Av. Gral. Paz 174,piso 1,5000,351,248709,granrex@yahoo.com.ar,http://cinesgranrex.com.ar/,,-31.413467,-64.185517,Localización precisa,INCAA / SInCA,Privado comercial,6,827,,2018
212,14014010,14,14014,,Salas de cine,Córdoba,Capital,Córdoba,Hoyts,Av. Velez Sarsfield 361,s/d,5000,s/d,57771000,rmazzutti@hoyts.com.ar,https://www.cinemarkhoyts.com.ar/,,-31.419463,-64.188813,Localización precisa,INCAA / SInCA,Privado comercial,8,986,,2018
213,14014010,14,14014,,Salas de cine,Córdoba,Capital,Córdoba,Hoyts,Duarte Quiros 1400,s/d,5000,351,4803737,rmazzutti@hoyts.com.ar,https://www.cinemarkhoyts.com.ar/,,-31.413218,-64.204384,Localización precisa,INCAA / SInCA,Privado comercial,6,960,,2018
214,14014010,14,14014,,Salas de cine,Córdoba,Capital,Córdoba,Showcase,J.A. Goyechea 2851,s/d,5009,351,4880499,canigia@naiarg.com.ar,https://www.todoshowcase.com/,,-31.37983,-64.214238,Localización precisa,INCAA / SInCA,Privado comercial,12,2386,,2018
215,14014010,14,14014,,Salas de cine,Córdoba,Capital,Córdoba,Tao Sex,Rivadavia 219,s/d,5000,351,4232865,lucramireznur@hotmail.com,https://www.facebook.com/pg/taosex.cordoba/about/?ref=page_internal,,-31.413791,-64.181869,Localización precisa,INCAA / SInCA,Privado comercial,1,23,,2018
216,14014010,14,14014,,Salas de cine,Córdoba,Capital,Córdoba,Gran Rex,Rivera Indarte 139,piso 1,5000,351,4248709,granrexcba@yahoo.com.ar,http://cinesgranrex.com.ar/,,-31.413907,-64.184912,Localización precisa,INCAA / SInCA,Privado comercial,2,374,,2018
217,14014010,14,14014,,Salas de cine,Córdoba,Capital,Córdoba,Dinosaurio Mall,Rodriguez Del Busto 4086,s/d,5009,351,5261500,cluduena@grupodinosaurio.com,https://www.cinesdinomall.com.ar/Inicio,,-31.374331,-64.222543,Localización precisa,INCAA / SInCA,Privado comercial,7,1193,,2018
218,14014010,14,14014,,Salas de cine,Córdoba,Capital,Córdoba,Vip´S Cinema,Santa Rosa 212,s/d,5000,351,4265280,batty256@hotmail.com,http://usandbath.com/cine-vips-cinema-de-cordoba/,,-31.411696,-64.185711,Localización precisa,INCAA / SInCA,Privado comercial,1,44,,2018
219,14028050,14,14028,,Salas de cine,Córdoba,Cruz del Eje,Cruz del Eje,Aida,Thomas Edison 2126,s/d,5280,3549,423530,mhr57@hotmail.com,https://www.facebook.com/CineTeatroAidaCruzDelEje/photos/a.1650682478478134/2094015514144826/?type=1&theater,,-30.721123,-64.809898,Localización precisa,INCAA / SInCA,Privado comercial,1,444,,2018
220,14021140,14,14021,,Salas de cine,Córdoba,Colon,Jesus María,Las Tipas Boulevard,Ruta Nacional 9 Esq. Corrientes,s/d,5220,3525,428300,admin@lastipasboulevard.com.ar,http://www.cinesmolise.com.ar/,,-30.977117,-64.08461,Localización precisa,INCAA / SInCA,Privado comercial,3,623,,2018
221,14140300,14,14140,,Salas de cine,Córdoba,San Justo,Morteros,Las Tipas Boulevard,Bv. Illia 232,s/d,2421,3562,405750,admin@lastipasboulevard.com.ar,http://www.lastipasboulevard.com.ar/,,-30.709913,-62.004292,Localización precisa,INCAA / SInCA,Privado comercial,2,300,,2018
222,14161150,14,14161,,Salas de cine,Córdoba,Tercero Arriba,Río Tercero,Cinema Strike,Velez Sarfield 143,s/d,5850,3571,414444,analia.cruchiani@hotmail.com,http://cinemastrike.com.ar/,,-32.173616,-64.112293,Localización precisa,INCAA / SInCA,Privado comercial,2,400,,2018
223,14140360,14,14140,,Salas de cine,Córdoba,San Justo,San Francisco,Digital Tresd,Iturraspe 1448,s/d,2400,3564,424403,nuevocineradar@gmail.com,http://www.nuevocineradar.com.ar/,,-31.429048,-62.082118,Localización precisa,INCAA / SInCA,Privado comercial,3,620,,2018
224,14021280,14,14021,,Salas de cine,Córdoba,Colon,Unquillo,Espacio Incaa Unquillo,San Martin 1505,s/d,5109,3543,487307,espacioincaaunquillo@gmail.com,http://www.unquillo.gov.ar/webGF/index.html,,-31.2376037,-64.3120955,Localización precisa,INCAA / SInCA,Público municipal,1,220,si,2018
225,14098290,14,14098,,Salas de cine,Córdoba,Rio Cuarto,Vicuña Mackenna,Sala C.E.Y.A.L,Av. Carlos S. Y De 1056,s/d,6140,385,480000,ceyalcoop@ceyalcoop.com.ar,http://www.ceyalcoop.com.ar/2018/09/11/985/,,-33.92201,-64.391679,Localización precisa,INCAA / SInCA,Privado comercial,1,850,,2018
226,14021290,14,14021,,Salas de cine,Córdoba,Colon,Villa Allende,Showcase,Rio De Janeiro 1725,s/d,5105,3543,438314,galonso@naiarg.com.ar,https://www.todoshowcase.com/,,-31.29374,-64.290766,Localización precisa,INCAA / SInCA,Privado comercial,3,563,,2018
227,14091250,14,14091,,Salas de cine,Córdoba,Punilla,Villa Carlos Paz,Holly Paz,9 De Julio 53,s/d,5152,3541,435924,charlymagnano@hotmail.com,https://www.holidaycinemas.com.ar/,,-31.42071,-64.499959,Localización precisa,INCAA / SInCA,Privado comercial,4,1000,,2018
228,14119210,14,14119,,Salas de cine,Córdoba,Rio Segundo,Villa del Rosario,Cine General Paz,Sarmiento 731,s/d,5963,3573,456011,iambrogio@hotmail.com,https://m.facebook.com/dfinelli.d.finelli?fref=ts,,-31.553891,-63.53414,Localización precisa,INCAA / SInCA,Privado comercial,1,412,,2018
229,14133200,14,14133,,Salas de cine,Córdoba,San Javier,Villa Dolores,Eter Cine,Felipe Erdman 145,s/d,5870,3544,610095,efernandez486@yahoo.com.ar,http://www.etercine3d.com.ar/,,-31.944437,-65.192108,Localización precisa,INCAA / SInCA,Privado comercial,2,400,,2018
230,14042170,14,14042,,Salas de cine,Córdoba,General San Martin,Villa María,Centro Cultural Leonardo Favio,Av. Sabattini 200,s/d,5900,11,4061440,espacioincaa555@hotmail.com,http://www.villamaria.gob.ar,,-32.410815,-63.248169,Localización precisa,INCAA / SInCA,Público municipal,1,200,si,2018
231,14042170,14,14042,,Salas de cine,Córdoba,General San Martin,Villa María,Sudcinemas,"Ruta Nacional 158 Km 155,5",s/d,5900,3534,4522337,sudcinemas@arnetbiz.com.ar,http://sudcinemas.com.ar/cine-wp/,,-32.41003,-63.262294,Localización precisa,INCAA / SInCA,Privado comercial,4,800,,2018
232,2000010,2,2000,,Salas de cine,Ciudad Autónoma de Buenos Aires,Ciudad Autonoma de Buenos Aires,Ciudad Autónoma de Buenos Aires,Cinemark,Av. Alicia M De Justo 1920,s/d,1107,s/d,57771000,iventura@cinemark.com.ar,https://www.cinemarkhoyts.com.ar,,-34.622186,-58.365288,Localización precisa,INCAA / SInCA,Privado comercial,8,1379,,2018
233,2000010,2,2000,,Salas de cine,Ciudad Autónoma de Buenos Aires,Ciudad Autonoma de Buenos Aires,Ciudad Autónoma de Buenos Aires,Cinema,Av. Cabildo 2702,s/d,1428,s/d,47890232,fharari@hotmail.com.ar,http://www.cinemacity.com.ar/,,-34.556886,-58.461259,Localización precisa,INCAA / SInCA,Privado comercial,6,1576,,2018
234,2000010,2,2000,,Salas de cine,Ciudad Autónoma de Buenos Aires,Ciudad Autonoma de Buenos Aires,Ciudad Autónoma de Buenos Aires,Multiplex,Av. Cabildo 2829,s/d,1428,s/d,47816500,viourno@cinesmultiplex.com.ar.,https://www.multiplex.com.ar/,,-34.55597,-58.461705,Localización precisa,INCAA / SInCA,Privado comercial,5,792,,2018
235,2000010,2,2000,,Salas de cine,Ciudad Autónoma de Buenos Aires,Ciudad Autonoma de Buenos Aires,Ciudad Autónoma de Buenos Aires,Alianza Francesa,Av. Cordoba 946,s/d,1054,s/d,43220068,francisco.armendariz@alianzafrancesa.org.ar,https://www.alianzafrancesa.org.ar/cultura/cine,,-34.599017,-58.380403,Localización precisa,INCAA / SInCA,Privado independiente,1,178,,2018
236,2000010,2,2000,,Salas de cine,Ciudad Autónoma de Buenos Aires,Ciudad Autonoma de Buenos Aires,Ciudad Autónoma de Buenos Aires,Bama Cine,Av. Corrientes 1145,s/d,1145,11,44136283,guillermo@bamacine.com,http://www.bamacine.com/,,-34.603326,-58.382745,Localización precisa,INCAA / SInCA,Privado comercial,3,343,,2018
237,2000010,2,2000,,Salas de cine,Ciudad Autónoma de Buenos Aires,Ciudad Autonoma de Buenos Aires,Ciudad Autónoma de Buenos Aires,Cine Lorca,Av. Corrientes 1428,s/d,1042,s/d,43715017,lorcacine@gmail.com,http://cinelorca.wixsite.com/cine-lorca,,-34.604091,-58.38682,Localización precisa,INCAA / SInCA,Privado comercial,2,452,,2018
238,2000010,2,2000,,Salas de cine,Ciudad Autónoma de Buenos Aires,Ciudad Autonoma de Buenos Aires,Ciudad Autónoma de Buenos Aires,Sala Leopoldo Lugones,Av. Corrientes 1530,s/d,1042,s/d,43710111,acardoso@complejoteatral.gob.ar,https://complejoteatral.gob.ar/cine,,-34.604258,-58.388392,Localización precisa,INCAA / SInCA,Público municipal,1,212,,2018
239,2000010,2,2000,,Salas de cine,Ciudad Autónoma de Buenos Aires,Ciudad Autonoma de Buenos Aires,Ciudad Autónoma de Buenos Aires,Sala Raúl González Tuñón,Av. Corrientes 1543,s/d,1042,s/d,50778000,directorartistico@entrocultural.coop,http://www.centrocultural.coop/,,-34.604051,-58.388536,Localización precisa,INCAA / SInCA,Privado independiente,1,94,,2018
240,2000010,2,2000,,Salas de cine,Ciudad Autónoma de Buenos Aires,Ciudad Autonoma de Buenos Aires,Ciudad Autónoma de Buenos Aires,Cine Cosmos,Av. Corrientes 2046,s/d,1045,s/d,49535405,gabriel.guralnik@gmail.com,https://www.facebook.com/pg/cinecosmos.uba/about/?ref=page_internal,,-34.604629,-58.396198,Localización precisa,INCAA / SInCA,Público nacional,2,190,,2018
241,2000010,2,2000,,Salas de cine,Ciudad Autónoma de Buenos Aires,Ciudad Autonoma de Buenos Aires,Ciudad Autónoma de Buenos Aires,Hoyts,Av. Corrientes 3247,s/d,1193,s/d,57771000,rmazzutti@hoyts.com.ar,https://www.cinemarkhoyts.com.ar/,,-34.603485,-58.410853,Localización precisa,INCAA / SInCA,Privado comercial,12,3021,,2018
242,2000010,2,2000,,Salas de cine,Ciudad Autónoma de Buenos Aires,Ciudad Autonoma de Buenos Aires,Ciudad Autónoma de Buenos Aires,Malba,Av. Figuero Alcorta 3415,Planta Baja,1425,11,48086500,recepcion@malba.org.ar,http://www.malba.org.ar/eventos/de/actividades-cine-programacion/,,-34.577273,-58.403747,Localización precisa,INCAA / SInCA,Privado comercial,1,224,,2018
243,2000010,2,2000,,Salas de cine,Ciudad Autónoma de Buenos Aires,Ciudad Autonoma de Buenos Aires,Ciudad Autónoma de Buenos Aires,Cinemark,Av. La Plata 96,s/d,1184,s/d,57771000,iventura@cinemark.com.ar,https://www.cinemarkhoyts.com.ar,,-34.616128,-58.428999,Localización precisa,INCAA / SInCA,Privado comercial,6,898,,2018
244,2000010,2,2000,,Salas de cine,Ciudad Autónoma de Buenos Aires,Ciudad Autonoma de Buenos Aires,Ciudad Autónoma de Buenos Aires,Gaumont CineAR,Av. Rivadavia 1635,s/d,1033,s/d,43815754,guadalupe.veiga@incaa.gov.ar,http://www.incaa.gov.ar/sin-categoria/cartelera-cine-gaumont,,-34.60898,-58.38964,Localización precisa,INCAA / SInCA,Público nacional,3,1167,si,2018
245,2000010,2,2000,,Salas de cine,Ciudad Autónoma de Buenos Aires,Ciudad Autonoma de Buenos Aires,Ciudad Autónoma de Buenos Aires,Village,Av. Rivadavia 5071,s/d,1424,s/d,51686868,village.caballito@village.com.ar,https://www.villagecines.com/,,-34.618581,-58.437367,Localización precisa,INCAA / SInCA,Privado comercial,9,1769,,2018
246,2000010,2,2000,,Salas de cine,Ciudad Autónoma de Buenos Aires,Ciudad Autonoma de Buenos Aires,Ciudad Autónoma de Buenos Aires,Cinemark,Beruti 3399,s/d,1425,s/d,57771000,iventura@cinemark.com.ar,https://www.cinemarkhoyts.com.ar,,-34.586565,-58.410421,Localización precisa,INCAA / SInCA,Privado comercial,10,1738,,2018
247,2000010,2,2000,,Salas de cine,Ciudad Autónoma de Buenos Aires,Ciudad Autonoma de Buenos Aires,Ciudad Autónoma de Buenos Aires,Microcine Centro Cultural Recoleta,Junin 1930,s/d,1113,s/d,48031040,evitamaggi@buenosaires.gob.ar,http://www.centroculturalrecoleta.org/,,-34.586753,-58.391672,Localización precisa,INCAA / SInCA,Público municipal,1,100,,2018
248,2000010,2,2000,,Salas de cine,Ciudad Autónoma de Buenos Aires,Ciudad Autonoma de Buenos Aires,Ciudad Autónoma de Buenos Aires,Sisco Box,Laprida 1423,s/d,1425,11,41430660,natipereiradarre@gmail.com,s/d,,-34.592435,-58.405847,Localización precisa,INCAA / SInCA,Privado comercial,2,40,,2018
249,2000010,2,2000,,Salas de cine,Ciudad Autónoma de Buenos Aires,Ciudad Autonoma de Buenos Aires,Ciudad Autónoma de Buenos Aires,Multiplex Lavalle,Lavalle 780,s/d,1047,s/d,43261596,asomma@cinesmultiplex.com.ar,https://www.multiplex.com.ar/,,-34.602358,-58.377801,Localización precisa,INCAA / SInCA,Privado comercial,7,1270,,2018
250,2000010,2,2000,,Salas de cine,Ciudad Autónoma de Buenos Aires,Ciudad Autonoma de Buenos Aires,Ciudad Autónoma de Buenos Aires,Showcase,Monroe 1655,s/d,1428,s/d,47883322,rfarias@naiarg.com.ar,https://www.todoshowcase.com/,,-34.553878,-58.452868,Localización precisa,INCAA / SInCA,Privado comercial,10,2082,,2018
251,2000010,2,2000,,Salas de cine,Ciudad Autónoma de Buenos Aires,Ciudad Autonoma de Buenos Aires,Ciudad Autónoma de Buenos Aires,Cinema Del Parque,Nazarre 3135,s/d,1417,s/d,45030200,ibuttironi@cpmcines.com,https://cpmcines.com/home,,-34.601749,-58.494866,Localización precisa,INCAA / SInCA,Privado comercial,2,277,,2018
252,2000010,2,2000,,Salas de cine,Ciudad Autónoma de Buenos Aires,Ciudad Autonoma de Buenos Aires,Ciudad Autónoma de Buenos Aires,A.M.I.A.,Pasteur 633,s/d,1028,s/d,49598800,amia@amia.org.ar,https://cultura.amia.org.ar,,-34.601857,-58.399757,Localización precisa,INCAA / SInCA,Privado comunitario ,1,237,,2018
253,2000010,2,2000,,Salas de cine,Ciudad Autónoma de Buenos Aires,Ciudad Autonoma de Buenos Aires,Ciudad Autónoma de Buenos Aires,Atlas Cine,Rivera Indarte 44,s/d,1406,s/d,43135050,info@atlascines.com.ar,cineatlasweb.com.ar,,-34.629368,-58.462523,Localización precisa,INCAA / SInCA,Privado comercial,5,1263,si,2018
254,2000010,2,2000,,Salas de cine,Ciudad Autónoma de Buenos Aires,Ciudad Autonoma de Buenos Aires,Ciudad Autónoma de Buenos Aires,Edén,Santa Fe 1825,s/d,1123,s/d,43283150,jse13310@gmail.com,s/d,,-34.595832,-58.393655,Localización precisa,INCAA / SInCA,Privado comercial,1,30,,2018
255,2000010,2,2000,,Salas de cine,Ciudad Autónoma de Buenos Aires,Ciudad Autonoma de Buenos Aires,Ciudad Autónoma de Buenos Aires,Cine Ideal Solo Adultos,Suipacha 378,s/d,1008,s/d,43263300,s/d,s/d,,-34.603822,-58.37951,Localización precisa,INCAA / SInCA,Privado comercial,5,770,,2018
256,2000010,2,2000,,Salas de cine,Ciudad Autónoma de Buenos Aires,Ciudad Autonoma de Buenos Aires,Ciudad Autónoma de Buenos Aires,Village,Vicente Lopez 2050,s/d,1128,s/d,51280828,village.recoleta@village.com.ar,https://www.villagecines.com/,,-34.58922,-58.392976,Localización precisa,INCAA / SInCA,Privado comercial,10,1776,,2018
257,2000010,2,2000,,Salas de cine,Ciudad Autónoma de Buenos Aires,Ciudad Autonoma de Buenos Aires,Ciudad Autónoma de Buenos Aires,Multiplex,Vuelta De Obligado 2199,s/d,1428,s/d,47818187,gfeldman@cinesmultiplex.com,https://www.multiplex.com.ar/,,-34.560503,-58.456499,Localización precisa,INCAA / SInCA,Privado comercial,8,2314,,2018
258,6826050,6,6826,,Salas de cine,Buenos Aires,Trenque Lauquen,Trenque Lauquen,Espacio Incaa Cine Barrio Alegre,9 De Julio 133,Planta Baja,6400,2392,432001,clubbarrioalegre@cetl.com.ar,https://www.facebook.com/cinebarrio3d/,,-35.972252,-62.73485,Localización precisa,INCAA / SInCA,Privado comercial,1,1200,si,2018
259,6483040,6,6483,,Salas de cine,Buenos Aires,Lobos,Lobos,Cine Teatro Italiano,9 De Julio 142,s/d,7240,2227,431228,cultural@lobos.gov.ar,https://www.facebook.com/teatrocineitaliano/,,-35.1848326,-59.0958551,Localización precisa,INCAA / SInCA,Público municipal,1,350,SI,2018
260,6568010,6,6568,,Salas de cine,Buenos Aires,Moron,Morón,T. Municipalidad G. De La Ferrere,Alte. Brown 990,s/d,1708,s/d,44831412,teatrolaferreremoron@gmail.com,http://www.moron.gob.ar/nuestra-gestion/cultura/accion-cultural/#,,-34.651188,-58.621931,Localización precisa,INCAA / SInCA,Público municipal,1,133,si,2018
261,6581040,6,6581,,Salas de cine,Buenos Aires,Necochea,Necochea,Cine Teatro París,Av. 59 2868,s/d,7630,2262,647459,info@cineteatroparis.com,https://www.facebook.com/cineteatroparis.necochea/,,-38.552285,-58.742125,Localización precisa,INCAA / SInCA,Privado comercial,1,915,si,2018
262,6798020,6,6798,,Salas de cine,Buenos Aires,Tapalque,Tapalque,Espacio Incaa Centro Cultural Municipal Dr. Ricardo Romera,Av. 9 De Julio Y Av. San Martin,s/d,7303,2283,420248,adolfolivio@hotmail.com,http://www.municipiodetapalque.gob.ar/?tag=centro-cultural-dr-ricardo-romera,,-36.356939,-60.025212,Localización precisa,INCAA / SInCA,Público municipal,1,264,si,2018
263,6210020,6,6210,,Salas de cine,Buenos Aires,Chacabuco,Chacabuco,Teatro Italiano Espacio INCAA,Av. Alsina 29,s/d,6740,2352,428776,celiae06@hotmail.com,https://www.facebook.com/Teatro-Italiano-Galer%C3%ADa-de-Arte-434088023281257/,,-34.6430186,-60.4700374,Localización precisa,INCAA / SInCA,Público municipal,1,289,SI,2018
264,6658010,6,6658,,Salas de cine,Buenos Aires,Quilmes,Quilmes,Hoyts,Av. Calchaqui 3950,s/d,1879,s/d,57771000,rmazzutti@hoyts.com.ar,https://www.cinemarkhoyts.com.ar/,,-34.759703,-58.278794,Localización precisa,INCAA / SInCA,Privado comercial,12,2580,,2018
265,6224010,6,6224,,Salas de cine,Buenos Aires,Chivilcoy,Chivilcoy,Metropol,Av. Ceballos 29,s/d,6620,2346,422555,lagandolfo@yahoo.com.ar,https://www.facebook.com/CineMetropolChivilcoy/,,-34.895844,-60.020493,Localización precisa,INCAA / SInCA,Privado comercial,1,500,,2018
266,6805010,6,6805,,Salas de cine,Buenos Aires,Tigre,Rincón de Milberg,Nordel Cinema,Av. De Los Lagos 7010,s/d,1617,s/d,48710193,s/d,http://www.nordeltacc.com.ar/,,-34.39934,-58.653797,Localización precisa,INCAA / SInCA,Privado comercial,5,969,,2018
267,6490010,6,6490,,Salas de cine,Buenos Aires,Lomas de Zamora,Temperley,Hoyts,Av. Hipolito Irigoyen 10699,s/d,1834,s/d,57771000,rmazzutti@hoyts.com.ar,https://www.cinemarkhoyts.com.ar/,,-34.781692,-58.406675,Localización precisa,INCAA / SInCA,Privado comercial,9,2382,,2018
268,6515010,6,6515,,Salas de cine,Buenos Aires,Malvinas Argentinas,Los Polvorines,Cinemark,Av. Illia 3770,s/d,1613,s/d,57771000,iventura@cinemark.com.ar,https://www.cinemarkhoyts.com.ar,,-34.530697,-58.703113,Localización precisa,INCAA / SInCA,Privado comercial,10,2414,,2018
269,6427010,6,6427,,Salas de cine,Buenos Aires,La Matanza,San Justo,Cinemark,Av. Juan Manuel De Rosas 3990,s/d,1754,s/d,57771000,iventura@cinemark.com.ar,https://www.cinemarkhoyts.com.ar,,-34.685116,-58.558255,Localización precisa,INCAA / SInCA,Privado comercial,6,1843,,2018
270,6840010,6,6840,,Salas de cine,Buenos Aires,Tres de Febrero,Ciudadela,Nuevo Ciudadela,Av. Maipu 3927,s/d,1702,s/d,46535914,nuevociudadela@yahoo.com.ar,s/d,,-34.639772,-58.54124,Localización precisa,INCAA / SInCA,Privado comercial,2,350,,2018
271,6469080,6,6469,,Salas de cine,Buenos Aires,Lincoln,Lincoln,Cine Club Jorge Newbery,Av. Massey 839,s/d,6070,2355,421928,clubjnewbery@gmail.com,https://www.facebook.com/clubjorgenewberylincoln/,,-34.866042,-61.527907,Localización precisa,INCAA / SInCA,Privado comercial,1,483,,2018
272,6623100,6,6623,,Salas de cine,Buenos Aires,Pergamino,Pergamino,Cinema,Av. Mayo Y San Nicolas,Piso 1,2700,2477,443932,cinemapergamino@bbt11.com.ar,http://vamosacinema.com/,,-33.89284,-60.572327,Localización precisa,INCAA / SInCA,Privado comercial,2,556,,2018
273,6420030,6,6420,,Salas de cine,Buenos Aires,La Costa,San Clemente,Gran Tuyu,Av. San Martin 181,s/d,7105,225,2521025,cinesdelacosta@yahoo.com.ar,https://www.facebook.com/cine.tuyu/,,-36.356863,-56.721892,Localización precisa,INCAA / SInCA,Privado comercial,1,450,,2018
274,6274010,6,6274,,Salas de cine,Buenos Aires,Florencio Varela,Florencio Varela,Cinemacenter,Av. San Martin 554 Y Av. Del Trabajo,s/d,1888,s/d,42370445,centervarela@cinemacenter.com.ar,http://www.cinemacenter.com.ar/,,-34.779714,-58.279417,Localización precisa,INCAA / SInCA,Privado comercial,6,1327,,2018
275,6056010,6,6056,,Salas de cine,Buenos Aires,Bahia Blanca,Bahía Blanca,Cinemacenter,Av. Sarmiento 2153,s/d,8000,291,4535844,centerbahia@cinemacenter.com.ar,http://www.cinemacenter.com.ar/,,-38.698777,-62.244043,Localización precisa,INCAA / SInCA,Privado comercial,7,1501,,2018
276,6644010,6,6644,,Salas de cine,Buenos Aires,Pinamar,Pinamar,Oasis,Av. Shaw 644,s/d,7167,225,4497333,exhibidoraatlantica@yahoo.com.ar,http://www.cineoasis.com.ar/,,-38.722103,-62.261507,Localización precisa,INCAA / SInCA,Privado comercial,2,744,,2018
277,6224010,6,6224,,Salas de cine,Buenos Aires,Chivilcoy,Chivilcoy,Cine Español Chivilcoy,Av. Suarez 86,s/d,6620,2346,427272,laganadolfo@yahoo.com.ar,https://www.facebook.com/cinechivilcoy/,,-34.90193,-60.015456,Localización precisa,INCAA / SInCA,Privado comercial,1,500,,2018
278,6560010,6,6560,,Salas de cine,Buenos Aires,Moreno,Moreno,Hoyts,Av. Victorica 1128,s/d,1744,s/d,57771000,rmazzutti@hoyts.com.ar,https://www.cinemarkhoyts.com.ar/,,-34.635647,-58.791968,Localización precisa,INCAA / SInCA,Privado comercial,10,2476,,2018
279,6112010,6,6112,,Salas de cine,Buenos Aires,Bragado,Bragado,Espacio Incaa Florencio Constantino,Belgrano 1260,s/d,6640,2342,422060,culturabragado@gmail.com,s/d,,-35.11502,-60.489391,Localización precisa,INCAA / SInCA,Público municipal,1,750,SI,2018
280,6056010,6,6056,,Salas de cine,Buenos Aires,Bahia Blanca,Bahía Blanca,Amodeo Visión,Belgrano 153,s/d,8000,291,4547639,s/d,s/d,,-38.718149,-62.262122,Localización precisa,INCAA / SInCA,Privado comercial,3,907,,2018
281,6357110,6,6357,,Salas de cine,Buenos Aires,General Pueyrredon,Mar del Plata,Pigalle,Belgrano 2327,s/d,7600,223,490306,danielmazzitello@hotmail.com,s/d,,-38.002416,-57.545386,Localización precisa,INCAA / SInCA,Privado comercial,2,120,,2018
282,6770050,6,6770,,Salas de cine,Buenos Aires,San Pedro,San Pedro,Cine Teatro La Palma,Belgrano 961,s/d,2930,3329,427251,cineteatrolapalma@gmail.com,https://www.facebook.com/MEC.LaPalma/,,-33.678826,-59.668011,Localización precisa,INCAA / SInCA,Privado comercial,2,471,,2018
283,6357110,6,6357,,Salas de cine,Buenos Aires,General Pueyrredon,Mar del Plata,Lisieux Diagonal,Belgrano Y Diag. Pueyrredon 3058,s/d,7600,223,4999200,recepcion666@cinemacenter. com.ar,http://dixain.wixsite.com/paseodiagonal/cines,,-37.99894,-57.552262,Localización precisa,INCAA / SInCA,Privado comercial,4,687,,2018
284,6756010,6,6756,,Salas de cine,Buenos Aires,San Isidro,Boulogne,Cinemark Soleil,Bernardo De Yrigoyen 2647,s/d,1609,s/d,57771000,iventura@cinemark.com.ar,https://www.cinemarkhoyts.com.ar,,-34.490982,-58.58856,Localización precisa,INCAA / SInCA,Privado comercial,6,1895,,2018
285,6049020,6,6049,,Salas de cine,Buenos Aires,Azul,Azul,Flix Cinema,Bolivar 416,s/d,7300,2281,432580,flixcinema@hotmail.com,http://azul.flixcinema.com.ar/,,-36.77836,-59.864783,Localización precisa,INCAA / SInCA,Privado comercial,1,160,,2018
286,6861010,6,6861,,Salas de cine,Buenos Aires,Vicente Lopez,Vicente López,Zona Cine Coto Olivos,Borges 309 Y Espora 3030,s/d,1638,11,47113478,maciro@coto.com.ar,https://www.zonacines.com.ar,,-34.50226,-58.481476,Localización precisa,INCAA / SInCA,Privado comercial,2,489,,2018
287,6357110,6,6357,,Salas de cine,Buenos Aires,General Pueyrredon,Mar del Plata,Teatro Auditorium,Bv. Maritimo 2280,s/d,7600,223,4937786,direccionauditorium@hotmail.com,http://programacionauditorium.blogspot.com/,,-38.006718,-57.545561,Localización precisa,INCAA / SInCA,Público provincial,3,1563,,2018
288,6532020,6,6532,,Salas de cine,Buenos Aires,Mercedes,Mercedes,Cine Mercedes,Calle 20 728,s/d,6600,2324,432700,cine-mercedes@hotmail.com,http://cinemercedes.com/,,-34.652278,-59.433057,Localización precisa,INCAA / SInCA,Privado comercial,1,190,,2018
289,6280040,6,6280,,Salas de cine,Buenos Aires,General Alvarado,Miramar,Cine Atlántico,Calle 21 1564,s/d,7607,2291,420167,recepcion666@cinemacenter.com.ar,http://www.cineteatroatlantico.com.ar/,,-38.268129,-57.841066,Localización precisa,INCAA / SInCA,Privado comercial,1,902,,2018
290,6420040,6,6420,,Salas de cine,Buenos Aires,La Costa,Santa Teresita,Yanel,Calle 32 372,s/d,7107,224,6520348,s/d,s/d,,-36.534911,-56.694027,Localización precisa,INCAA / SInCA,Privado comercial,2,635,,2018
291,6420040,6,6420,,Salas de cine,Buenos Aires,La Costa,Santa Teresita,Atlántico,Calle 41 258,s/d,7107,224,6528800,cinesdelacosta@yahoo.com.ar,s/d,,-36.54343,-56.700912,Localización precisa,INCAA / SInCA,Privado comercial,1,1107,,2018
292,6441030,6,6441,,Salas de cine,Buenos Aires,La Plata,La Plata,Cinema Paraíso,Calle 46 780,s/d,1900,221,4834074,fharari@hotmail.com.ar,http://www.cinemalaplata.com,,-34.915734,-57.956742,Localización precisa,INCAA / SInCA,Privado comercial,4,603,,2018
293,6175010,6,6175,,Salas de cine,Buenos Aires,Colon,Colón,Cine Teatro Colon,Calle 48 Y 19,s/d,2720,2477,515644,cineteatrocolon@hotmail.com,http://cineteatrocolon.com.ar,,-33.906237,-61.11381,Localización precisa,INCAA / SInCA,Privado comercial,1,270,,2018
294,6441030,6,6441,,Salas de cine,Buenos Aires,La Plata,La Plata,Cinema,Calle 49 621,s/d,1900,221,4259873,fharari@hotmail.com.ar,http://www.cinemalaplata.com,,-34.91472,-57.950898,Localización precisa,INCAA / SInCA,Privado comercial,6,1613,,2018
295,6441030,6,6441,,Salas de cine,Buenos Aires,La Plata,La Plata,Cine Municipal Select,Calle 50 Esq 49 Y 6,s/d,1900,221,4271210,cineylocacioneslaplata@gmail.com,http://www.cultura.laplata.gov.ar/lugar/cine-municipal-select,,-34.913653,-57.949452,Localización precisa,INCAA / SInCA,Público municipal,1,174,si,2018
296,6420010,6,6420,,Salas de cine,Buenos Aires,La Costa,Las Toninas,Las Toninas,Calle 7 1564 Entre 36 Y 38,s/d,7106,2246,431050,s/d,s/d,,-36.494604,-56.696022,Localización precisa,INCAA / SInCA,Privado comercial,1,245,,2018
297,6441030,6,6441,,Salas de cine,Buenos Aires,La Plata,La Plata,Cinema,Calle 7 923,s/d,1900,221,4839947,fharari@hotmail.com.ar,http://www.cinemalaplata.com,,-34.91532089,-57.94927541,Localización precisa,INCAA / SInCA,Privado comercial,7,2184,,2018
298,6581040,6,6581,,Salas de cine,Buenos Aires,Necochea,Necochea,Cines Ocean,Calle 83 350,s/d,7630,s/d,s/d,pedroacostaesteves@hotmail.com,https://www.cinesocean.com.ar/,,-38.579616,-58.731164,Localización precisa,INCAA / SInCA,Privado comercial,3,1620,,2018
299,6056010,6,6056,,Salas de cine,Buenos Aires,Bahia Blanca,Bahía Blanca,Cines Del Centro - Cine Visión,Chiclana 452,s/d,8000,291,4547575,s/d,http://www.cinesdelcentrobb.com.ar/,,-38.722103,-62.261507,Localización precisa,INCAA / SInCA,Privado comercial,2,501,,2018
300,6833100,6,6833,,Salas de cine,Buenos Aires,Tres Arroyos,Tres Arroyos,Cine El Solar Del Tortoni,Colon 255,s/d,7500,2983,425097,cinetortoni@eternet.com,http://www.elsolardeltortoni.com.ar/,,-38.379664,-60.274413,Localización precisa,INCAA / SInCA,Privado comercial,1,160,,2018
301,6515010,6,6515,,Salas de cine,Buenos Aires,Malvinas Argentinas,Tortuguitas,Cinemark,Constituyentes Y Au Panamericana Km 36.5,s/d,1667,s/d,57771000,iventura@cinemark.com.ar,https://www.cinemarkhoyts.com.ar,,-34.453372,-58.728969,Localización precisa,INCAA / SInCA,Privado comercial,8,1905,,2018
302,6357110,6,6357,,Salas de cine,Buenos Aires,General Pueyrredon,Mar del Plata,Cinemacenter,Cordoba 1673,s/d,7600,223,4957271,hbroemser@cinemacenter.com.ar,http://www.cinemacenter.com.ar/,,-37.999077,-57.546914,Localización precisa,INCAA / SInCA,Privado comercial,4,947,,2018
303,6315010,6,6315,,Salas de cine,Buenos Aires,General Juan Madariaga,General Madariaga,Espacio INCAA Gral. Madariaga,Dr. Carlos Madariaga 499,s/d,7163,2267,552861,casadelacultura@hotmail.com,https://www.facebook.com/Espacio-INCAA-Madariaga-888001574621995/,,-36.998699,-57.134121,Localización precisa,INCAA / SInCA,Público municipal,1,230,SI,2018
304,6568010,6,6560,,Salas de cine,Buenos Aires,Moreno,Haedo,Showcase,Dr. Luis Guemes 393,s/d,1706,s/d,44439700,naiarg@naiarg.com.ar,https://www.todoshowcase.com/,,-34.644068,-58.595643,Localización precisa,INCAA / SInCA,Privado comercial,14,3890,,2018
305,6861010,6,6861,,Salas de cine,Buenos Aires,Vicente Lopez,Munro,Showcase,E. Echeverria 3750,s/d,1605,s/d,47565900,naiarg@naiarg.com.ar galberdi@naiarg.com.ar,https://www.todoshowcase.com/,,-34.514341,-58.522151,Localización precisa,INCAA / SInCA,Privado comercial,17,4214,,2018
306,6840010,6,6840,,Salas de cine,Buenos Aires,Tres de Febrero,Villa Bosch,Víctor Show Cinemas,El Payador 5539,s/d,1682,s/d,48440561,julio.perazzelli@hotmail.com,https://www.facebook.com/VictorShowCinemas/,,-34.58918,-58.573161,Localización precisa,INCAA / SInCA,Privado comercial,3,413,,2018
307,6357110,6,6357,,Salas de cine,Buenos Aires,General Pueyrredon,Mar del Plata,Cine Cristal,Entre Rios 1783,s/d,7600,223,4914733,consultoraad@live.com.ar,s/d,,-38.002209,-57.543388,Localización precisa,INCAA / SInCA,Privado comercial,2,40,,2018
308,6270010,6,6270,,Salas de cine,Buenos Aires,Ezeiza,Ezeiza,Multiplex,Formosa 653,Piso 1,1804,s/d,50750446,ldominguez@cinesmultiplex.com.ar,https://www.multiplex.com.ar/,,-34.856114,-58.504664,Localización precisa,INCAA / SInCA,Privado comercial,6,1132,,2018
309,6035010,6,6035,,Salas de cine,Buenos Aires,Avellaneda,Avellaneda,Atlas Cine,Guemes 897,s/d,1870,s/d,43135050,info@atlascines.com.ar,cineatlasweb.com.ar,,-34.677993,-58.36723,Localización precisa,INCAA / SInCA,Privado comercial,6,1275,,2018
310,6420020,6,6420,,Salas de cine,Buenos Aires,La Costa,Mar de Ajó,California,Hipolito Irigoyen 18,s/d,7112,2257,422022,exhibidoraatlantica@yahoo.com.ar,https://www.facebook.com/Cine-California-MDA-241279462590816/,,-36.726598,-56.675313,Localización precisa,INCAA / SInCA,Privado comercial,2,551,,2018
311,6028010,6,6028,,Salas de cine,Buenos Aires,Almirante Brown,Adrogué,Atlas Cine,Hipolito Yrigoyen 13200,s/d,1846,s/d,43135050,info@atlascines.com.ar,cineatlasweb.com.ar,,-34.80811,-58.4024,Localización precisa,INCAA / SInCA,Privado comercial,10,2505,,2018
312,6301010,6,6301,,Salas de cine,Buenos Aires,General Belgrano,General Belgrano,Cine Teatro Español,Larrea 688,s/d,7223,2243,453060,cultura@belgranomun.gob.ar,https://www.facebook.com/CINE-ESPA%C3%91OL-General-Belgrano-1440074889579719/,,-35.767143,-58.495995,Localización precisa,INCAA / SInCA,Público municipal,1,378,,2018
313,6847020,6,6847,,Salas de cine,Buenos Aires,Tres Lomas,Tres Lomas,Cine Teatro Español,Monteverde 257,s/d,6409,2394,420855,rominaamutio@hotmail.com,https://www.facebook.com/cinetreslomas/,,-36.457207,-62.862913,Localización precisa,INCAA / SInCA,Privado comercial,1,300,si,2018
314,6658010,6,6658,,Salas de cine,Buenos Aires,Quilmes,Quilmes,Showcase,Olavarria 180,s/d,1878,s/d,42576006,naiarg@naiarg.com.ar,https://www.todoshowcase.com/,,-34.725459,-58.255294,Localización precisa,INCAA / SInCA,Privado comercial,8,1730,,2018
315,6084020,6,6084,,Salas de cine,Buenos Aires,Benito Juarez,Benito Juarez,Centro Cultural Atilio Marinelli,Otamendi Y Av. San Martin,s/d,7020,11,5313467,ccatiliomarinelli@gmail.com,https://www.facebook.com/Centro-Cultural-Atilio-Marinelli-de-Benito-Ju%C3%A1rez-1396556527284843/,,-37.682663,-59.816052,Localización precisa,INCAA / SInCA,Público municipal,1,350,,2018
316,6791050,6,6791,,Salas de cine,Buenos Aires,Tandil,Tandil,Cinemacenter,Panama 351,s/d,7000,2494,424251,centertandil@cinemacenter.com.ar,http://www.cinemacenter.com.ar/,,-37.324258,-59.114758,Localización precisa,INCAA / SInCA,Privado comercial,4,758,,2018
317,6638040,6,6638,,Salas de cine,Buenos Aires,Pilar,Pilar,Village,Panamericana Ac. Norte Km 50,s/d,1629,230,4650505,village.pilar@village.com.ar,https://www.villagecines.com/,,-34.455906,-58.908329,Localización precisa,INCAA / SInCA,Privado comercial,9,2675,,2018
318,6756010,6,6756,,Salas de cine,Buenos Aires,San Isidro,Martínez,Hoyts,Parana 3745,s/d,1640,s/d,41188118,rmazzutti@hoyts.com.ar,https://www.cinemarkhoyts.com.ar/,,-34.50892146,-58.52347061,Localización precisa,INCAA / SInCA,Privado comercial,16,3427,,2018
319,6868020,6,6868,,Salas de cine,Buenos Aires,Villa Gesell,Villa Gesell,Atlantic,Paseo 105 Entre 3 Y 2,s/d,7165,2255,462323,cineatlanticgesell@gmail.com,http://cineatlantic.com.ar/,,-37.25143,-56.976791,Localización precisa,INCAA / SInCA,Privado comercial,1,400,,2018
320,6210020,6,6210,,Salas de cine,Buenos Aires,Chacabuco,Chacabuco,Cine Teatro Español,Pueyrredon 29,s/d,6740,2352,442172,estudiodiazpalacio@gmail.com,http://cinemachacabuco.com.ar/,,-34.641214,-60.471635,Localización precisa,INCAA / SInCA,Privado comercial,1,700,,2018
321,6357110,6,6357,,Salas de cine,Buenos Aires,General Pueyrredon,Mar del Plata,Cinemacenter,Rivadavia 3050,s/d,7600,223,4999200,gpaai@cinemacenter.com.ar,http://www.cinemacenter.com.ar/,,-37.997965,-57.552019,Localización precisa,INCAA / SInCA,Privado comercial,2,487,,2018
322,6511020,6,6511,,Salas de cine,Buenos Aires,Maipu,Maipú,Cine Teatro Sociedad Italiana,Rivadavia 555,s/d,7160,2268,421649,marinagole@yahoo.com.ar,https://www.facebook.com/CineTeatroSociedadItalianaMaipu,,-36.861231,-57.883152,Localización precisa,INCAA / SInCA,Privado comercial,1,450,si,2018
323,6427010,6,6427,,Salas de cine,Buenos Aires,La Matanza,Gonzalez Catán,Cpm Cinemas Catan Shopping,Ruta 3 Km 29 Bj Manuel De Rosas 14457,s/d,1759,s/d,49534489,cpmcinemas@gmail.com,https://cpmcines.com,,-34.761032,-58.615582,Localización precisa,INCAA / SInCA,Privado comercial,6,1114,,2018
324,6455030,6,6455,,Salas de cine,Buenos Aires,Las Flores,Las Flores,Cine San Martin,San Martin 593,s/d,7200,2244,462332,estre-c@hotmail.com,http://www.cinesanmartin3d.com.ar/,,-36.015599,-59.098583,Localización precisa,INCAA / SInCA,Privado comercial,1,0,,2018
325,6434010,6,6434,,Salas de cine,Buenos Aires,Lanus,Lanús,Zona Cines Coto Lanús,Warnes 2450,s/d,1824,11,42399300,maciro@coto.com.ar,https://www.zonacines.com.ar,,-34.690192,-58.419057,Localización precisa,INCAA / SInCA,Privado comercial,8,2037,,2018
326,6791050,6,6791,,Salas de cine,Buenos Aires,Tandil,Tandil,Espacio INCAA Unicen,Yrigoyen 662,s/d,7000,249,4628324,martinezmcarla@yahoo.com.ar,https://www.unicen.edu.ar/content/funciones-espacio-incaa-unicen-ahora-tambi%C3%A9n-podes-seguirnos-en-instagram,,-37.3261317,-59.1385772,Localización precisa,INCAA / SInCA,Público nacional,1,430,si,2018
327,10049030,10,10049,,Salas de cine,Catamarca,Capital,Catamarca,Cine Teatro Catamarca,San Martín 555,s/d,4700,383,4439129,s/d,http://www.turismo.catamarca.gob.ar/?vh_accommodation=teatros-en-sfvc/cine-teatro-catamarca,,-28.469709,-65.778881,Localización precisa,INCAA / SInCA,Público municipal,1,1103,si,2018
328,6427010,6,6427,,Salas de cine,Buenos Aires,La Matanza,San Justo,Espacio INCAA Km 16 La Matanza ,Av. Illia 2340,s/d,1754,11,35316634,"info@ccvb.org.ar
",http://www.ccvb.org.ar/cinespecioincaa.html,,-34.674824,-58.562913,Localización precisa,INCAA / SInCA,Privado independiente,1,390,SI,2018
